{"type":"FeatureCollection","crs":{"type":"name","properties":{"name":"EPSG:4326"}},"features":[{"type":"Feature","geometry":{"type":"Point","coordinates":[-1.52149074075595,53.7910848127593]},"properties":{"LSOA21CD":"E01011626"}},{"type":"Feature","geometry":{"type":"Point","coordinates":[-1.56045538859722,53.787304924266]},"properties":{"LSOA21CD":"E01033013"}},{"type":"Feature","geometry":{"type":"Point","coordinates":[-1.56792024966815,53.8104392611621]},"properties":{"LSOA21CD":"E01011448"}},{"type":"Feature","geometry":{"type":"Point","coordinates":[-1.51817889541952,53.8015916229975]},"properties":{"LSOA21CD":"E01011349"}},{"type":"Feature","geometry":{"type":"Point","coordinates":[-1.61561567281756,53.816809995356]},"properties":{"LSOA21CD":"E01011324"}},{"type":"Feature","geometry":{"type":"Point","coordinates":[-1.55489095025822,53.7947754613144]},"properties":{"LSOA21CD":"E01033015"}},{"type":"Feature","geometry":{"type":"Point","coordinates":[-1.61310265540179,53.7950471641813]},"properties":{"LSOA21CD":"E01011725"}},{"type":"Feature","geometry":{"type":"Point","coordinates":[-1.52654369346648,53.8256122589519]},"properties":{"LSOA21CD":"E01011353"}},{"type":"Feature","geometry":{"type":"Point","coordinates":[-1.5873185776077,53.8003968182088]},"properties":{"LSOA21CD":"E01011284"}},{"type":"Feature","geometry":{"type":"Point","coordinates":[-1.52892977519992,53.7583825222569]},"properties":{"LSOA21CD":"E01011475"}},{"type":"Feature","geometry":{"type":"Point","coordinates":[-1.55280049019427,53.7778577793027]},"properties":{"LSOA21CD":"E01011373"}},{"type":"Feature","geometry":{"type":"Point","coordinates":[-1.56590752530293,53.8057988331141]},"properties":{"LSOA21CD":"E01011681"}},{"type":"Feature","geometry":{"type":"Point","coordinates":[-1.5963011420087,53.8207335620699]},"properties":{"LSOA21CD":"E01011489"}},{"type":"Feature","geometry":{"type":"Point","coordinates":[-1.58522147947601,53.8182862412101]},"properties":{"LSOA21CD":"E01035041"}},{"type":"Feature","geometry":{"type":"Point","coordinates":[-1.50076741281266,53.8055085233698]},"properties":{"LSOA21CD":"E01011340"}},{"type":"Feature","geometry":{"type":"Point","coordinates":[-1.55087350176318,53.8111383985743]},"properties":{"LSOA21CD":"E01035042"}},{"type":"Feature","geometry":{"type":"Point","coordinates":[-1.51541480788855,53.8252679075352]},"properties":{"LSOA21CD":"E01011642"}},{"type":"Feature","geometry":{"type":"Point","coordinates":[-1.56401995066871,53.8276190363274]},"properties":{"LSOA21CD":"E01011691"}},{"type":"Feature","geometry":{"type":"Point","coordinates":[-1.58673477233217,53.7860308506092]},"properties":{"LSOA21CD":"E01011733"}},{"type":"Feature","geometry":{"type":"Point","coordinates":[-1.57469574097284,53.8129058442355]},"properties":{"LSOA21CD":"E01011446"}},{"type":"Feature","geometry":{"type":"Point","coordinates":[-1.5908410547103,53.8130691266413]},"properties":{"LSOA21CD":"E01011480"}},{"type":"Feature","geometry":{"type":"Point","coordinates":[-1.51100610901043,53.8198647844683]},"properties":{"LSOA21CD":"E01011647"}},{"type":"Feature","geometry":{"type":"Point","coordinates":[-1.50447339937333,53.7978209313023]},"properties":{"LSOA21CD":"E01011615"}},{"type":"Feature","geometry":{"type":"Point","coordinates":[-1.5224872781186,53.7562819728208]},"properties":{"LSOA21CD":"E01011476"}},{"type":"Feature","geometry":{"type":"Point","coordinates":[-1.50628514495104,53.8024056378652]},"properties":{"LSOA21CD":"E01011348"}},{"type":"Feature","geometry":{"type":"Point","coordinates":[-1.53401263618107,53.7699795494038]},"properties":{"LSOA21CD":"E01011471"}},{"type":"Feature","geometry":{"type":"Point","coordinates":[-1.53085632502146,53.7813589716681]},"properties":{"LSOA21CD":"E01011467"}},{"type":"Feature","geometry":{"type":"Point","coordinates":[-1.4919992958297,53.8202797604818]},"properties":{"LSOA21CD":"E01011421"}},{"type":"Feature","geometry":{"type":"Point","coordinates":[-1.60029795793532,53.7886458908885]},"properties":{"LSOA21CD":"E01011731"}},{"type":"Feature","geometry":{"type":"Point","coordinates":[-1.51610213393783,53.8148941044405]},"properties":{"LSOA21CD":"E01011428"}},{"type":"Feature","geometry":{"type":"Point","coordinates":[-1.58526756639842,53.7692360291902]},"properties":{"LSOA21CD":"E01011318"}},{"type":"Feature","geometry":{"type":"Point","coordinates":[-1.55704592917978,53.7677720546363]},"properties":{"LSOA21CD":"E01011319"}},{"type":"Feature","geometry":{"type":"Point","coordinates":[-1.51048568193055,53.8119032871069]},"properties":{"LSOA21CD":"E01011432"}},{"type":"Feature","geometry":{"type":"Point","coordinates":[-1.54999102407209,53.8036993099736]},"properties":{"LSOA21CD":"E01033008"}},{"type":"Feature","geometry":{"type":"Point","coordinates":[-1.52189413041584,53.8167544050208]},"properties":{"LSOA21CD":"E01011426"}},{"type":"Feature","geometry":{"type":"Point","coordinates":[-1.60868504845103,53.8301538266463]},"properties":{"LSOA21CD":"E01011484"}},{"type":"Feature","geometry":{"type":"Point","coordinates":[-1.54257443398254,53.8025973690018]},"properties":{"LSOA21CD":"E01033010"}},{"type":"Feature","geometry":{"type":"Point","coordinates":[-1.5508267421999,53.7721088340999]},"properties":{"LSOA21CD":"E01011316"}},{"type":"Feature","geometry":{"type":"Point","coordinates":[-1.59029941583403,53.7954848798862]},"properties":{"LSOA21CD":"E01011292"}},{"type":"Feature","geometry":{"type":"Point","coordinates":[-1.58273422303139,53.8291269678743]},"properties":{"LSOA21CD":"E01011690"}},{"type":"Feature","geometry":{"type":"Point","coordinates":[-1.6101072910331,53.8109087670034]},"properties":{"LSOA21CD":"E01011281"}},{"type":"Feature","geometry":{"type":"Point","coordinates":[-1.50875007453581,53.8076162171397]},"properties":{"LSOA21CD":"E01011344"}},{"type":"Feature","geometry":{"type":"Point","coordinates":[-1.55325636013951,53.774154993189]},"properties":{"LSOA21CD":"E01011375"}},{"type":"Feature","geometry":{"type":"Point","coordinates":[-1.60152161432137,53.79470595051]},"properties":{"LSOA21CD":"E01011729"}},{"type":"Feature","geometry":{"type":"Point","coordinates":[-1.56333020771514,53.7824434480753]},"properties":{"LSOA21CD":"E01011366"}},{"type":"Feature","geometry":{"type":"Point","coordinates":[-1.54019359576283,53.805158283015]},"properties":{"LSOA21CD":"E01033002"}},{"type":"Feature","geometry":{"type":"Point","coordinates":[-1.53770352472272,53.8267519518245]},"properties":{"LSOA21CD":"E01011352"}},{"type":"Feature","geometry":{"type":"Point","coordinates":[-1.51544354424165,53.7911137607844]},"properties":{"LSOA21CD":"E01011625"}},{"type":"Feature","geometry":{"type":"Point","coordinates":[-1.51190761154486,53.8146791994634]},"properties":{"LSOA21CD":"E01011430"}},{"type":"Feature","geometry":{"type":"Point","coordinates":[-1.56850587627666,53.7641486701736]},"properties":{"LSOA21CD":"E01011321"}},{"type":"Feature","geometry":{"type":"Point","coordinates":[-1.61599830975342,53.8256120121494]},"properties":{"LSOA21CD":"E01032493"}},{"type":"Feature","geometry":{"type":"Point","coordinates":[-1.57195338271872,53.8094722685733]},"properties":{"LSOA21CD":"E01011449"}},{"type":"Feature","geometry":{"type":"Point","coordinates":[-1.52300143469993,53.7711606666509]},"properties":{"LSOA21CD":"E01011470"}},{"type":"Feature","geometry":{"type":"Point","coordinates":[-1.52990488322079,53.80184687913]},"properties":{"LSOA21CD":"E01033031"}},{"type":"Feature","geometry":{"type":"Point","coordinates":[-1.61914303352315,53.8020074186224]},"properties":{"LSOA21CD":"E01032606"}},{"type":"Feature","geometry":{"type":"Point","coordinates":[-1.55613752080933,53.8163083509222]},"properties":{"LSOA21CD":"E01011668"}},{"type":"Feature","geometry":{"type":"Point","coordinates":[-1.50907793864829,53.826252301425]},"properties":{"LSOA21CD":"E01011645"}},{"type":"Feature","geometry":{"type":"Point","coordinates":[-1.53709325518202,53.7523993619987]},"properties":{"LSOA21CD":"E01032497"}},{"type":"Feature","geometry":{"type":"Point","coordinates":[-1.53336060701981,53.7911189360604]},"properties":{"LSOA21CD":"E01035054"}},{"type":"Feature","geometry":{"type":"Point","coordinates":[-1.59256269094121,53.790027854323]},"properties":{"LSOA21CD":"E01011732"}},{"type":"Feature","geometry":{"type":"Point","coordinates":[-1.49625422969159,53.7922074091025]},"properties":{"LSOA21CD":"E01011621"}},{"type":"Feature","geometry":{"type":"Point","coordinates":[-1.61995126708275,53.8143713583597]},"properties":{"LSOA21CD":"E01011332"}},{"type":"Feature","geometry":{"type":"Point","coordinates":[-1.56131023216819,53.7612237550155]},"properties":{"LSOA21CD":"E01011322"}},{"type":"Feature","geometry":{"type":"Point","coordinates":[-1.61781245199897,53.8288598723047]},"properties":{"LSOA21CD":"E01032494"}},{"type":"Feature","geometry":{"type":"Point","coordinates":[-1.56062350837555,53.8230334008281]},"properties":{"LSOA21CD":"E01011450"}},{"type":"Feature","geometry":{"type":"Point","coordinates":[-1.51518258047886,53.8106888942905]},"properties":{"LSOA21CD":"E01011434"}},{"type":"Feature","geometry":{"type":"Point","coordinates":[-1.49106453725391,53.8284899421202]},"properties":{"LSOA21CD":"E01011644"}},{"type":"Feature","geometry":{"type":"Point","coordinates":[-1.59417880906797,53.7524508697748]},"properties":{"LSOA21CD":"E01011531"}},{"type":"Feature","geometry":{"type":"Point","coordinates":[-1.52125381695571,53.8108646387222]},"properties":{"LSOA21CD":"E01011673"}},{"type":"Feature","geometry":{"type":"Point","coordinates":[-1.53986248974278,53.821969990294]},"properties":{"LSOA21CD":"E01011358"}},{"type":"Feature","geometry":{"type":"Point","coordinates":[-1.57450367970716,53.826875837772]},"properties":{"LSOA21CD":"E01011692"}},{"type":"Feature","geometry":{"type":"Point","coordinates":[-1.57469471720077,53.807747328616]},"properties":{"LSOA21CD":"E01011481"}},{"type":"Feature","geometry":{"type":"Point","coordinates":[-1.60495496518309,53.7555309709004]},"properties":{"LSOA21CD":"E01011528"}},{"type":"Feature","geometry":{"type":"Point","coordinates":[-1.53768330208414,53.8053420955017]},"properties":{"LSOA21CD":"E01033003"}},{"type":"Feature","geometry":{"type":"Point","coordinates":[-1.60125720313234,53.8191331939275]},"properties":{"LSOA21CD":"E01011488"}},{"type":"Feature","geometry":{"type":"Point","coordinates":[-1.5211695295638,53.7523016713822]},"properties":{"LSOA21CD":"E01011502"}},{"type":"Feature","geometry":{"type":"Point","coordinates":[-1.49239720540379,53.8123749446083]},"properties":{"LSOA21CD":"E01011339"}},{"type":"Feature","geometry":{"type":"Point","coordinates":[-1.61397520664248,53.7858181729498]},"properties":{"LSOA21CD":"E01011735"}},{"type":"Feature","geometry":{"type":"Point","coordinates":[-1.4956417779002,53.8233658581523]},"properties":{"LSOA21CD":"E01011646"}},{"type":"Feature","geometry":{"type":"Point","coordinates":[-1.49387776854849,53.7998021126327]},"properties":{"LSOA21CD":"E01011617"}},{"type":"Feature","geometry":{"type":"Point","coordinates":[-1.57285101890472,53.8219462098342]},"properties":{"LSOA21CD":"E01011451"}},{"type":"Feature","geometry":{"type":"Point","coordinates":[-1.50915980429679,53.7970831938432]},"properties":{"LSOA21CD":"E01011618"}},{"type":"Feature","geometry":{"type":"Point","coordinates":[-1.57028350417905,53.7743569401209]},"properties":{"LSOA21CD":"E01011369"}},{"type":"Feature","geometry":{"type":"Point","coordinates":[-1.52342253162153,53.7774870335698]},"properties":{"LSOA21CD":"E01011468"}},{"type":"Feature","geometry":{"type":"Point","coordinates":[-1.57875800923982,53.8144232573506]},"properties":{"LSOA21CD":"E01011441"}},{"type":"Feature","geometry":{"type":"Point","coordinates":[-1.54937935120749,53.825473755452]},"properties":{"LSOA21CD":"E01011355"}},{"type":"Feature","geometry":{"type":"Point","coordinates":[-1.53258702359791,53.822141374342]},"properties":{"LSOA21CD":"E01011356"}},{"type":"Feature","geometry":{"type":"Point","coordinates":[-1.53027318811979,53.7927311771188]},"properties":{"LSOA21CD":"E01033034"}},{"type":"Feature","geometry":{"type":"Point","coordinates":[-1.58206394988025,53.8204917123738]},"properties":{"LSOA21CD":"E01011435"}},{"type":"Feature","geometry":{"type":"Point","coordinates":[-1.56075877247038,53.7724475153581]},"properties":{"LSOA21CD":"E01011313"}},{"type":"Feature","geometry":{"type":"Point","coordinates":[-1.61070562232991,53.8059439186714]},"properties":{"LSOA21CD":"E01011283"}},{"type":"Feature","geometry":{"type":"Point","coordinates":[-1.57306917870726,53.815265166407]},"properties":{"LSOA21CD":"E01011442"}},{"type":"Feature","geometry":{"type":"Point","coordinates":[-1.54862612317031,53.7893815603737]},"properties":{"LSOA21CD":"E01035046"}},{"type":"Feature","geometry":{"type":"Point","coordinates":[-1.52811405470928,53.7534675800046]},"properties":{"LSOA21CD":"E01011466"}},{"type":"Feature","geometry":{"type":"Point","coordinates":[-1.58433749580847,53.8111327901388]},"properties":{"LSOA21CD":"E01011478"}},{"type":"Feature","geometry":{"type":"Point","coordinates":[-1.5834168257684,53.8247352167848]},"properties":{"LSOA21CD":"E01011694"}},{"type":"Feature","geometry":{"type":"Point","coordinates":[-1.5641654544126,53.8151395819536]},"properties":{"LSOA21CD":"E01011443"}},{"type":"Feature","geometry":{"type":"Point","coordinates":[-1.56106031279805,53.765588256535]},"properties":{"LSOA21CD":"E01011320"}},{"type":"Feature","geometry":{"type":"Point","coordinates":[-1.54367268119239,53.8097514809843]},"properties":{"LSOA21CD":"E01011671"}},{"type":"Feature","geometry":{"type":"Point","coordinates":[-1.61776663380848,53.8108766203176]},"properties":{"LSOA21CD":"E01011295"}},{"type":"Feature","geometry":{"type":"Point","coordinates":[-1.60488531283693,53.7509019792876]},"properties":{"LSOA21CD":"E01011525"}},{"type":"Feature","geometry":{"type":"Point","coordinates":[-1.54823090809471,53.7759727972213]},"properties":{"LSOA21CD":"E01011372"}},{"type":"Feature","geometry":{"type":"Point","coordinates":[-1.510632324348,53.8096337200581]},"properties":{"LSOA21CD":"E01011433"}},{"type":"Feature","geometry":{"type":"Point","coordinates":[-1.60639087235282,53.8267910432413]},"properties":{"LSOA21CD":"E01011485"}},{"type":"Feature","geometry":{"type":"Point","coordinates":[-1.61009594660689,53.7522515912161]},"properties":{"LSOA21CD":"E01011532"}},{"type":"Feature","geometry":{"type":"Point","coordinates":[-1.59874449310847,53.7987795784387]},"properties":{"LSOA21CD":"E01032500"}},{"type":"Feature","geometry":{"type":"Point","coordinates":[-1.60509305086072,53.7827228738987]},"properties":{"LSOA21CD":"E01011737"}},{"type":"Feature","geometry":{"type":"Point","coordinates":[-1.55483832951406,53.8273628117879]},"properties":{"LSOA21CD":"E01011354"}},{"type":"Feature","geometry":{"type":"Point","coordinates":[-1.58685947951081,53.8090247089463]},"properties":{"LSOA21CD":"E01011482"}},{"type":"Feature","geometry":{"type":"Point","coordinates":[-1.55935218388178,53.8073921899756]},"properties":{"LSOA21CD":"E01035044"}},{"type":"Feature","geometry":{"type":"Point","coordinates":[-1.51446249670412,53.7949495685954]},"properties":{"LSOA21CD":"E01011623"}},{"type":"Feature","geometry":{"type":"Point","coordinates":[-1.5477278146003,53.7745123597228]},"properties":{"LSOA21CD":"E01011312"}},{"type":"Feature","geometry":{"type":"Point","coordinates":[-1.59281160740883,53.784700264572]},"properties":{"LSOA21CD":"E01011736"}},{"type":"Feature","geometry":{"type":"Point","coordinates":[-1.61209296086746,53.789485283518]},"properties":{"LSOA21CD":"E01011730"}},{"type":"Feature","geometry":{"type":"Point","coordinates":[-1.58948819322663,53.7596621606402]},"properties":{"LSOA21CD":"E01011524"}},{"type":"Feature","geometry":{"type":"Point","coordinates":[-1.49659048293491,53.7557888151801]},"properties":{"LSOA21CD":"E01011630"}},{"type":"Feature","geometry":{"type":"Point","coordinates":[-1.49472540830839,53.8175202133065]},"properties":{"LSOA21CD":"E01011423"}},{"type":"Feature","geometry":{"type":"Point","coordinates":[-1.55914245464093,53.7738718775392]},"properties":{"LSOA21CD":"E01011314"}},{"type":"Feature","geometry":{"type":"Point","coordinates":[-1.57916201915373,53.7951705738558]},"properties":{"LSOA21CD":"E01011294"}},{"type":"Feature","geometry":{"type":"Point","coordinates":[-1.58894079049111,53.7639477730993]},"properties":{"LSOA21CD":"E01011518"}},{"type":"Feature","geometry":{"type":"Point","coordinates":[-1.51781656919366,53.8176588518754]},"properties":{"LSOA21CD":"E01011422"}},{"type":"Feature","geometry":{"type":"Point","coordinates":[-1.55268301185828,53.8170061821383]},"properties":{"LSOA21CD":"E01011669"}},{"type":"Feature","geometry":{"type":"Point","coordinates":[-1.61827740326795,53.8064915567419]},"properties":{"LSOA21CD":"E01011286"}},{"type":"Feature","geometry":{"type":"Point","coordinates":[-1.60234399927548,53.7993307484298]},"properties":{"LSOA21CD":"E01032608"}},{"type":"Feature","geometry":{"type":"Point","coordinates":[-1.60865128160901,53.8007566869636]},"properties":{"LSOA21CD":"E01032499"}},{"type":"Feature","geometry":{"type":"Point","coordinates":[-1.50745472732584,53.815214824661]},"properties":{"LSOA21CD":"E01011427"}},{"type":"Feature","geometry":{"type":"Point","coordinates":[-1.56457056762042,53.771242210692]},"properties":{"LSOA21CD":"E01011315"}},{"type":"Feature","geometry":{"type":"Point","coordinates":[-1.57315384902632,53.8107801341063]},"properties":{"LSOA21CD":"E01011447"}},{"type":"Feature","geometry":{"type":"Point","coordinates":[-1.58093556764626,53.7899311015212]},"properties":{"LSOA21CD":"E01011362"}},{"type":"Feature","geometry":{"type":"Point","coordinates":[-1.52791193437826,53.815380231473]},"properties":{"LSOA21CD":"E01011361"}},{"type":"Feature","geometry":{"type":"Point","coordinates":[-1.5515907927827,53.7814306402026]},"properties":{"LSOA21CD":"E01011364"}},{"type":"Feature","geometry":{"type":"Point","coordinates":[-1.51891172680143,53.8085606135565]},"properties":{"LSOA21CD":"E01011677"}},{"type":"Feature","geometry":{"type":"Point","coordinates":[-1.50201206464782,53.816169646765]},"properties":{"LSOA21CD":"E01011424"}},{"type":"Feature","geometry":{"type":"Point","coordinates":[-1.52945660041056,53.7682026665108]},"properties":{"LSOA21CD":"E01011472"}},{"type":"Feature","geometry":{"type":"Point","coordinates":[-1.52172520664986,53.7991398387973]},"properties":{"LSOA21CD":"E01011338"}},{"type":"Feature","geometry":{"type":"Point","coordinates":[-1.50372438091617,53.8203792576106]},"properties":{"LSOA21CD":"E01011648"}},{"type":"Feature","geometry":{"type":"Point","coordinates":[-1.56181278432708,53.7765563679597]},"properties":{"LSOA21CD":"E01011370"}},{"type":"Feature","geometry":{"type":"Point","coordinates":[-1.56752389621222,53.8186585160876]},"properties":{"LSOA21CD":"E01032946"}},{"type":"Feature","geometry":{"type":"Point","coordinates":[-1.50070669333651,53.8127345848548]},"properties":{"LSOA21CD":"E01011431"}},{"type":"Feature","geometry":{"type":"Point","coordinates":[-1.5318426260582,53.7948776601331]},"properties":{"LSOA21CD":"E01033033"}},{"type":"Feature","geometry":{"type":"Point","coordinates":[-1.60078679384821,53.7967704360272]},"properties":{"LSOA21CD":"E01032607"}},{"type":"Feature","geometry":{"type":"Point","coordinates":[-1.52573053147325,53.8036053096174]},"properties":{"LSOA21CD":"E01033035"}},{"type":"Feature","geometry":{"type":"Point","coordinates":[-1.56603274304167,53.812355548351]},"properties":{"LSOA21CD":"E01011444"}},{"type":"Feature","geometry":{"type":"Point","coordinates":[-1.54334442230506,53.8288583303333]},"properties":{"LSOA21CD":"E01011350"}},{"type":"Feature","geometry":{"type":"Point","coordinates":[-1.60063809634606,53.7579302865719]},"properties":{"LSOA21CD":"E01011526"}},{"type":"Feature","geometry":{"type":"Point","coordinates":[-1.55020266074618,53.8139808174353]},"properties":{"LSOA21CD":"E01011670"}},{"type":"Feature","geometry":{"type":"Point","coordinates":[-1.53446671626537,53.8151825730608]},"properties":{"LSOA21CD":"E01011360"}},{"type":"Feature","geometry":{"type":"Point","coordinates":[-1.54904932350394,53.8078259985773]},"properties":{"LSOA21CD":"E01035043"}},{"type":"Feature","geometry":{"type":"Point","coordinates":[-1.52073300053191,53.8199834925273]},"properties":{"LSOA21CD":"E01011359"}},{"type":"Feature","geometry":{"type":"Point","coordinates":[-1.536705409883,53.795541142962]},"properties":{"LSOA21CD":"E01033011"}},{"type":"Feature","geometry":{"type":"Point","coordinates":[-1.57192771091907,53.8060541459703]},"properties":{"LSOA21CD":"E01011483"}},{"type":"Feature","geometry":{"type":"Point","coordinates":[-1.56232285115984,53.8010153577017]},"properties":{"LSOA21CD":"E01011678"}},{"type":"Feature","geometry":{"type":"Point","coordinates":[-1.56941923021067,53.8263965912851]},"properties":{"LSOA21CD":"E01011693"}},{"type":"Feature","geometry":{"type":"Point","coordinates":[-1.57304678779454,53.7930271546929]},"properties":{"LSOA21CD":"E01011363"}},{"type":"Feature","geometry":{"type":"Point","coordinates":[-1.58131146885079,53.8124230804218]},"properties":{"LSOA21CD":"E01011479"}},{"type":"Feature","geometry":{"type":"Point","coordinates":[-1.56338298890788,53.804593831442]},"properties":{"LSOA21CD":"E01035045"}},{"type":"Feature","geometry":{"type":"Point","coordinates":[-1.5192756913096,53.7591679994358]},"properties":{"LSOA21CD":"E01011469"}},{"type":"Feature","geometry":{"type":"Point","coordinates":[-1.52472054456497,53.7634155136846]},"properties":{"LSOA21CD":"E01011474"}},{"type":"Feature","geometry":{"type":"Point","coordinates":[-1.525011507427,53.7947948722998]},"properties":{"LSOA21CD":"E01033021"}},{"type":"Feature","geometry":{"type":"Point","coordinates":[-1.59774833524511,53.7793157902663]},"properties":{"LSOA21CD":"E01011734"}},{"type":"Feature","geometry":{"type":"Point","coordinates":[-1.59553699410766,53.8148799141453]},"properties":{"LSOA21CD":"E01011477"}},{"type":"Feature","geometry":{"type":"Point","coordinates":[-1.55602976364356,53.7858729116656]},"properties":{"LSOA21CD":"E01035047"}},{"type":"Feature","geometry":{"type":"Point","coordinates":[-1.57857353211436,53.8198304543147]},"properties":{"LSOA21CD":"E01011440"}},{"type":"Feature","geometry":{"type":"Point","coordinates":[-1.49209814336363,53.8081482001298]},"properties":{"LSOA21CD":"E01011342"}},{"type":"Feature","geometry":{"type":"Point","coordinates":[-1.58482677448018,53.7966959713685]},"properties":{"LSOA21CD":"E01011293"}},{"type":"Feature","geometry":{"type":"Point","coordinates":[-1.58635115241379,53.8198875434835]},"properties":{"LSOA21CD":"E01035040"}},{"type":"Feature","geometry":{"type":"Point","coordinates":[-1.53744915567453,53.818101491191]},"properties":{"LSOA21CD":"E01011357"}},{"type":"Feature","geometry":{"type":"Point","coordinates":[-1.54288943635721,53.7934183622141]},"properties":{"LSOA21CD":"E01033016"}},{"type":"Feature","geometry":{"type":"Point","coordinates":[-1.57005441506309,53.8125632170265]},"properties":{"LSOA21CD":"E01011445"}},{"type":"Feature","geometry":{"type":"Point","coordinates":[-1.53174603452877,53.7638723795834]},"properties":{"LSOA21CD":"E01011473"}},{"type":"Feature","geometry":{"type":"Point","coordinates":[-1.54085388330138,53.7772954151803]},"properties":{"LSOA21CD":"E01011374"}},{"type":"Feature","geometry":{"type":"Point","coordinates":[-1.49767875948998,53.8265821283453]},"properties":{"LSOA21CD":"E01011643"}},{"type":"Feature","geometry":{"type":"Point","coordinates":[-1.50708445442165,53.8049948712994]},"properties":{"LSOA21CD":"E01011347"}},{"type":"Feature","geometry":{"type":"Point","coordinates":[-1.56025985569631,53.7823968153843]},"properties":{"LSOA21CD":"E01011368"}},{"type":"Feature","geometry":{"type":"Point","coordinates":[-1.5209061252569,53.8139331385336]},"properties":{"LSOA21CD":"E01011429"}},{"type":"Feature","geometry":{"type":"Point","coordinates":[-1.54671826753971,53.7796545199532]},"properties":{"LSOA21CD":"E01011371"}},{"type":"Feature","geometry":{"type":"Point","coordinates":[-1.57898754901436,53.7680505605821]},"properties":{"LSOA21CD":"E01011317"}}]}