{"type":"FeatureCollection","crs":{"type":"name","properties":{"name":"EPSG:4326"}},"features":[{"type":"Feature","geometry":{"type":"Point","coordinates":[-1.61770478226241,53.8288569165336]},"properties":{"lsoa11cd":"E01032494","lsoa11nm":"Leeds 033G"}},{"type":"Feature","geometry":{"type":"Point","coordinates":[-1.51013793537925,53.8097086364271]},"properties":{"lsoa11cd":"E01011433","lsoa11nm":"Leeds 053C"}},{"type":"Feature","geometry":{"type":"Point","coordinates":[-1.61859540709332,53.8063831385099]},"properties":{"lsoa11cd":"E01011286","lsoa11nm":"Leeds 059D"}},{"type":"Feature","geometry":{"type":"Point","coordinates":[-1.52087150761011,53.8140373725749]},"properties":{"lsoa11cd":"E01011429","lsoa11nm":"Leeds 048D"}},{"type":"Feature","geometry":{"type":"Point","coordinates":[-1.58681848469816,53.7857797159655]},"properties":{"lsoa11cd":"E01011733","lsoa11nm":"Leeds 081D"}},{"type":"Feature","geometry":{"type":"Point","coordinates":[-1.52863186889777,53.7584855223678]},"properties":{"lsoa11cd":"E01011475","lsoa11nm":"Leeds 094C"}},{"type":"Feature","geometry":{"type":"Point","coordinates":[-1.57348036673073,53.7928814320545]},"properties":{"lsoa11cd":"E01011363","lsoa11nm":"Leeds 071E"}},{"type":"Feature","geometry":{"type":"Point","coordinates":[-1.51538172542627,53.825267845233]},"properties":{"lsoa11cd":"E01011642","lsoa11nm":"Leeds 032C"}},{"type":"Feature","geometry":{"type":"Point","coordinates":[-1.60082512839606,53.7968568758358]},"properties":{"lsoa11cd":"E01032607","lsoa11nm":"Leeds 067J"}},{"type":"Feature","geometry":{"type":"Point","coordinates":[-1.55921097887522,53.7738704552629]},"properties":{"lsoa11cd":"E01011314","lsoa11nm":"Leeds 091B"}},{"type":"Feature","geometry":{"type":"Point","coordinates":[-1.5677924822582,53.8181176032062]},"properties":{"lsoa11cd":"E01032946","lsoa11nm":"Leeds 110G"}},{"type":"Feature","geometry":{"type":"Point","coordinates":[-1.56062665456258,53.7875765122989]},"properties":{"lsoa11cd":"E01033013","lsoa11nm":"Leeds 082E"}},{"type":"Feature","geometry":{"type":"Point","coordinates":[-1.52813839366021,53.753501117355]},"properties":{"lsoa11cd":"E01011466","lsoa11nm":"Leeds 094A"}},{"type":"Feature","geometry":{"type":"Point","coordinates":[-1.56389587960857,53.8275257189794]},"properties":{"lsoa11cd":"E01011691","lsoa11nm":"Leeds 031D"}},{"type":"Feature","geometry":{"type":"Point","coordinates":[-1.57421464316098,53.8074278160451]},"properties":{"lsoa11cd":"E01011481","lsoa11nm":"Leeds 056C"}},{"type":"Feature","geometry":{"type":"Point","coordinates":[-1.56850695112862,53.7643028202151]},"properties":{"lsoa11cd":"E01011321","lsoa11nm":"Leeds 090D"}},{"type":"Feature","geometry":{"type":"Point","coordinates":[-1.5617928879797,53.7764539467436]},"properties":{"lsoa11cd":"E01011370","lsoa11nm":"Leeds 082D"}},{"type":"Feature","geometry":{"type":"Point","coordinates":[-1.57008171500145,53.8125124263929]},"properties":{"lsoa11cd":"E01011445","lsoa11nm":"Leeds 054A"}},{"type":"Feature","geometry":{"type":"Point","coordinates":[-1.58946783647387,53.7595620564634]},"properties":{"lsoa11cd":"E01011524","lsoa11nm":"Leeds 093B"}},{"type":"Feature","geometry":{"type":"Point","coordinates":[-1.54322424383112,53.8290515488013]},"properties":{"lsoa11cd":"E01011350","lsoa11nm":"Leeds 034A"}},{"type":"Feature","geometry":{"type":"Point","coordinates":[-1.60872362003685,53.83014373204]},"properties":{"lsoa11cd":"E01011484","lsoa11nm":"Leeds 033A"}},{"type":"Feature","geometry":{"type":"Point","coordinates":[-1.52160923703532,53.7989884926551]},"properties":{"lsoa11cd":"E01011338","lsoa11nm":"Leeds 064A"}},{"type":"Feature","geometry":{"type":"Point","coordinates":[-1.51787769846429,53.8176336731923]},"properties":{"lsoa11cd":"E01011422","lsoa11nm":"Leeds 048A"}},{"type":"Feature","geometry":{"type":"Point","coordinates":[-1.53294837657973,53.8222333498979]},"properties":{"lsoa11cd":"E01011356","lsoa11nm":"Leeds 042A"}},{"type":"Feature","geometry":{"type":"Point","coordinates":[-1.50393772673881,53.8203438825396]},"properties":{"lsoa11cd":"E01011648","lsoa11nm":"Leeds 037E"}},{"type":"Feature","geometry":{"type":"Point","coordinates":[-1.49191324895302,53.8204387501227]},"properties":{"lsoa11cd":"E01011421","lsoa11nm":"Leeds 040A"}},{"type":"Feature","geometry":{"type":"Point","coordinates":[-1.50743818234574,53.8152870322828]},"properties":{"lsoa11cd":"E01011427","lsoa11nm":"Leeds 047C"}},{"type":"Feature","geometry":{"type":"Point","coordinates":[-1.5982980753644,53.779497603988]},"properties":{"lsoa11cd":"E01011734","lsoa11nm":"Leeds 083A"}},{"type":"Feature","geometry":{"type":"Point","coordinates":[-1.58721456219932,53.8004674940311]},"properties":{"lsoa11cd":"E01011284","lsoa11nm":"Leeds 071A"}},{"type":"Feature","geometry":{"type":"Point","coordinates":[-1.55995610789266,53.7821124039121]},"properties":{"lsoa11cd":"E01011368","lsoa11nm":"Leeds 082C"}},{"type":"Feature","geometry":{"type":"Point","coordinates":[-1.52248275967116,53.756339302948]},"properties":{"lsoa11cd":"E01011476","lsoa11nm":"Leeds 094D"}},{"type":"Feature","geometry":{"type":"Point","coordinates":[-1.59003269752795,53.7954747843987]},"properties":{"lsoa11cd":"E01011292","lsoa11nm":"Leeds 071B"}},{"type":"Feature","geometry":{"type":"Point","coordinates":[-1.51520158931045,53.8107387031201]},"properties":{"lsoa11cd":"E01011434","lsoa11nm":"Leeds 053D"}},{"type":"Feature","geometry":{"type":"Point","coordinates":[-1.52071344053872,53.8200321121242]},"properties":{"lsoa11cd":"E01011359","lsoa11nm":"Leeds 042C"}},{"type":"Feature","geometry":{"type":"Point","coordinates":[-1.53325098443146,53.790252367323]},"properties":{"lsoa11cd":"E01033018","lsoa11nm":"Leeds 112D"}},{"type":"Feature","geometry":{"type":"Point","coordinates":[-1.52291300655748,53.7711108624885]},"properties":{"lsoa11cd":"E01011470","lsoa11nm":"Leeds 112C"}},{"type":"Feature","geometry":{"type":"Point","coordinates":[-1.50669691410963,53.8048984982848]},"properties":{"lsoa11cd":"E01011347","lsoa11nm":"Leeds 065B"}},{"type":"Feature","geometry":{"type":"Point","coordinates":[-1.55702476122803,53.7678249351436]},"properties":{"lsoa11cd":"E01011319","lsoa11nm":"Leeds 091C"}},{"type":"Feature","geometry":{"type":"Point","coordinates":[-1.60133063036257,53.8190447284068]},"properties":{"lsoa11cd":"E01011488","lsoa11nm":"Leeds 045C"}},{"type":"Feature","geometry":{"type":"Point","coordinates":[-1.54939062874565,53.8254742768537]},"properties":{"lsoa11cd":"E01011355","lsoa11nm":"Leeds 038B"}},{"type":"Feature","geometry":{"type":"Point","coordinates":[-1.49204195930048,53.8081560367852]},"properties":{"lsoa11cd":"E01011342","lsoa11nm":"Leeds 060C"}},{"type":"Feature","geometry":{"type":"Point","coordinates":[-1.55343846037481,53.7742853194388]},"properties":{"lsoa11cd":"E01011375","lsoa11nm":"Leeds 086D"}},{"type":"Feature","geometry":{"type":"Point","coordinates":[-1.56053749721468,53.7615150699195]},"properties":{"lsoa11cd":"E01011322","lsoa11nm":"Leeds 091E"}},{"type":"Feature","geometry":{"type":"Point","coordinates":[-1.61774401196321,53.8109440572903]},"properties":{"lsoa11cd":"E01011295","lsoa11nm":"Leeds 059E"}},{"type":"Feature","geometry":{"type":"Point","coordinates":[-1.51435063076269,53.7950493571844]},"properties":{"lsoa11cd":"E01011623","lsoa11nm":"Leeds 075B"}},{"type":"Feature","geometry":{"type":"Point","coordinates":[-1.53692484177749,53.7523722943014]},"properties":{"lsoa11cd":"E01032497","lsoa11nm":"Leeds 099E"}},{"type":"Feature","geometry":{"type":"Point","coordinates":[-1.51932080433453,53.7591730020105]},"properties":{"lsoa11cd":"E01011469","lsoa11nm":"Leeds 094B"}},{"type":"Feature","geometry":{"type":"Point","coordinates":[-1.55609188923917,53.8162977128975]},"properties":{"lsoa11cd":"E01011668","lsoa11nm":"Leeds 110E"}},{"type":"Feature","geometry":{"type":"Point","coordinates":[-1.49576197645746,53.8233560375306]},"properties":{"lsoa11cd":"E01011646","lsoa11nm":"Leeds 037C"}},{"type":"Feature","geometry":{"type":"Point","coordinates":[-1.52566508242264,53.8035768651459]},"properties":{"lsoa11cd":"E01033035","lsoa11nm":"Leeds 064F"}},{"type":"Feature","geometry":{"type":"Point","coordinates":[-1.60046802866169,53.788633157332]},"properties":{"lsoa11cd":"E01011731","lsoa11nm":"Leeds 081B"}},{"type":"Feature","geometry":{"type":"Point","coordinates":[-1.59504366444723,53.7526810760908]},"properties":{"lsoa11cd":"E01011531","lsoa11nm":"Leeds 093D"}},{"type":"Feature","geometry":{"type":"Point","coordinates":[-1.5508438586595,53.7721186347846]},"properties":{"lsoa11cd":"E01011316","lsoa11nm":"Leeds 086B"}},{"type":"Feature","geometry":{"type":"Point","coordinates":[-1.56457483908971,53.7712046946949]},"properties":{"lsoa11cd":"E01011315","lsoa11nm":"Leeds 090A"}},{"type":"Feature","geometry":{"type":"Point","coordinates":[-1.60516975458912,53.7827333627155]},"properties":{"lsoa11cd":"E01011737","lsoa11nm":"Leeds 083C"}},{"type":"Feature","geometry":{"type":"Point","coordinates":[-1.58348906239852,53.8247052156035]},"properties":{"lsoa11cd":"E01011694","lsoa11nm":"Leeds 109F"}},{"type":"Feature","geometry":{"type":"Point","coordinates":[-1.50107316260372,53.8126216418501]},"properties":{"lsoa11cd":"E01011431","lsoa11nm":"Leeds 047D"}},{"type":"Feature","geometry":{"type":"Point","coordinates":[-1.53170162248241,53.7639393074163]},"properties":{"lsoa11cd":"E01011473","lsoa11nm":"Leeds 092C"}},{"type":"Feature","geometry":{"type":"Point","coordinates":[-1.53662897267142,53.7955215719905]},"properties":{"lsoa11cd":"E01033011","lsoa11nm":"Leeds 111C"}},{"type":"Feature","geometry":{"type":"Point","coordinates":[-1.56791589464011,53.8104011811723]},"properties":{"lsoa11cd":"E01011448","lsoa11nm":"Leeds 054D"}},{"type":"Feature","geometry":{"type":"Point","coordinates":[-1.51811671963339,53.8014850382269]},"properties":{"lsoa11cd":"E01011349","lsoa11nm":"Leeds 065D"}},{"type":"Feature","geometry":{"type":"Point","coordinates":[-1.59079758619486,53.8128820041931]},"properties":{"lsoa11cd":"E01011480","lsoa11nm":"Leeds 045B"}},{"type":"Feature","geometry":{"type":"Point","coordinates":[-1.53981907287348,53.8221317361708]},"properties":{"lsoa11cd":"E01011358","lsoa11nm":"Leeds 042B"}},{"type":"Feature","geometry":{"type":"Point","coordinates":[-1.59226784542297,53.830270431632]},"properties":{"lsoa11cd":"E01011685","lsoa11nm":"Leeds 109A"}},{"type":"Feature","geometry":{"type":"Point","coordinates":[-1.52357881339352,53.7768548503751]},"properties":{"lsoa11cd":"E01011468","lsoa11nm":"Leeds 112B"}},{"type":"Feature","geometry":{"type":"Point","coordinates":[-1.51887062707408,53.8083965948378]},"properties":{"lsoa11cd":"E01011677","lsoa11nm":"Leeds 064D"}},{"type":"Feature","geometry":{"type":"Point","coordinates":[-1.58428707951569,53.8110360167164]},"properties":{"lsoa11cd":"E01011478","lsoa11nm":"Leeds 056A"}},{"type":"Feature","geometry":{"type":"Point","coordinates":[-1.53015159467884,53.8023598924151]},"properties":{"lsoa11cd":"E01033031","lsoa11nm":"Leeds 064E"}},{"type":"Feature","geometry":{"type":"Point","coordinates":[-1.50931240785734,53.8262995141292]},"properties":{"lsoa11cd":"E01011645","lsoa11nm":"Leeds 032D"}},{"type":"Feature","geometry":{"type":"Point","coordinates":[-1.59244246844391,53.7898618147693]},"properties":{"lsoa11cd":"E01011732","lsoa11nm":"Leeds 081C"}},{"type":"Feature","geometry":{"type":"Point","coordinates":[-1.52495918549083,53.763443605034]},"properties":{"lsoa11cd":"E01011474","lsoa11nm":"Leeds 092D"}},{"type":"Feature","geometry":{"type":"Point","coordinates":[-1.55710010551108,53.7937709829827]},"properties":{"lsoa11cd":"E01033015","lsoa11nm":"Leeds 111D"}},{"type":"Feature","geometry":{"type":"Point","coordinates":[-1.56346545001213,53.8151294420658]},"properties":{"lsoa11cd":"E01011443","lsoa11nm":"Leeds 110B"}},{"type":"Feature","geometry":{"type":"Point","coordinates":[-1.49383909164871,53.7997756759588]},"properties":{"lsoa11cd":"E01011617","lsoa11nm":"Leeds 070B"}},{"type":"Feature","geometry":{"type":"Point","coordinates":[-1.56329404220103,53.7826370915566]},"properties":{"lsoa11cd":"E01011366","lsoa11nm":"Leeds 082A"}},{"type":"Feature","geometry":{"type":"Point","coordinates":[-1.54990694716621,53.8093837562915]},"properties":{"lsoa11cd":"E01033005","lsoa11nm":"Leeds 055H"}},{"type":"Feature","geometry":{"type":"Point","coordinates":[-1.60488322305447,53.7554951182461]},"properties":{"lsoa11cd":"E01011528","lsoa11nm":"Leeds 095D"}},{"type":"Feature","geometry":{"type":"Point","coordinates":[-1.57939850370117,53.795045880811]},"properties":{"lsoa11cd":"E01011294","lsoa11nm":"Leeds 071D"}},{"type":"Feature","geometry":{"type":"Point","coordinates":[-1.50070754861094,53.8055023901551]},"properties":{"lsoa11cd":"E01011340","lsoa11nm":"Leeds 060B"}},{"type":"Feature","geometry":{"type":"Point","coordinates":[-1.52643876799315,53.8255881869694]},"properties":{"lsoa11cd":"E01011353","lsoa11nm":"Leeds 034D"}},{"type":"Feature","geometry":{"type":"Point","coordinates":[-1.55271687045306,53.7778238187148]},"properties":{"lsoa11cd":"E01011373","lsoa11nm":"Leeds 085C"}},{"type":"Feature","geometry":{"type":"Point","coordinates":[-1.56096212306586,53.7655901165206]},"properties":{"lsoa11cd":"E01011320","lsoa11nm":"Leeds 091D"}},{"type":"Feature","geometry":{"type":"Point","coordinates":[-1.56592281311522,53.8123442833663]},"properties":{"lsoa11cd":"E01011444","lsoa11nm":"Leeds 110C"}},{"type":"Feature","geometry":{"type":"Point","coordinates":[-1.56324993855868,53.801073051891]},"properties":{"lsoa11cd":"E01011678","lsoa11nm":"Leeds 063B"}},{"type":"Feature","geometry":{"type":"Point","coordinates":[-1.6087993282556,53.8006130827493]},"properties":{"lsoa11cd":"E01032499","lsoa11nm":"Leeds 067G"}},{"type":"Feature","geometry":{"type":"Point","coordinates":[-1.61063705469126,53.8059179527816]},"properties":{"lsoa11cd":"E01011283","lsoa11nm":"Leeds 059C"}},{"type":"Feature","geometry":{"type":"Point","coordinates":[-1.49626746410276,53.7923571400697]},"properties":{"lsoa11cd":"E01011621","lsoa11nm":"Leeds 070D"}},{"type":"Feature","geometry":{"type":"Point","coordinates":[-1.50891197106017,53.7971094723]},"properties":{"lsoa11cd":"E01011618","lsoa11nm":"Leeds 070C"}},{"type":"Feature","geometry":{"type":"Point","coordinates":[-1.60986583220533,53.7522525407059]},"properties":{"lsoa11cd":"E01011532","lsoa11nm":"Leeds 095E"}},{"type":"Feature","geometry":{"type":"Point","coordinates":[-1.53174851975532,53.7948053013196]},"properties":{"lsoa11cd":"E01033033","lsoa11nm":"Leeds 075F"}},{"type":"Feature","geometry":{"type":"Point","coordinates":[-1.51603785608435,53.8148876303296]},"properties":{"lsoa11cd":"E01011428","lsoa11nm":"Leeds 048C"}},{"type":"Feature","geometry":{"type":"Point","coordinates":[-1.53405377174041,53.7700193965414]},"properties":{"lsoa11cd":"E01011471","lsoa11nm":"Leeds 092A"}},{"type":"Feature","geometry":{"type":"Point","coordinates":[-1.52798208049626,53.8151642620411]},"properties":{"lsoa11cd":"E01011361","lsoa11nm":"Leeds 042E"}},{"type":"Feature","geometry":{"type":"Point","coordinates":[-1.52185165062676,53.8167975376312]},"properties":{"lsoa11cd":"E01011426","lsoa11nm":"Leeds 048B"}},{"type":"Feature","geometry":{"type":"Point","coordinates":[-1.57309814073333,53.8153074843561]},"properties":{"lsoa11cd":"E01011442","lsoa11nm":"Leeds 110A"}},{"type":"Feature","geometry":{"type":"Point","coordinates":[-1.52181262038258,53.7911464546074]},"properties":{"lsoa11cd":"E01011626","lsoa11nm":"Leeds 075D"}},{"type":"Feature","geometry":{"type":"Point","coordinates":[-1.53401695069607,53.7919304285647]},"properties":{"lsoa11cd":"E01033019","lsoa11nm":"Leeds 112E"}},{"type":"Feature","geometry":{"type":"Point","coordinates":[-1.5086268041973,53.8075286494326]},"properties":{"lsoa11cd":"E01011344","lsoa11nm":"Leeds 065A"}},{"type":"Feature","geometry":{"type":"Point","coordinates":[-1.54781451450248,53.7745352197759]},"properties":{"lsoa11cd":"E01011312","lsoa11nm":"Leeds 086A"}},{"type":"Feature","geometry":{"type":"Point","coordinates":[-1.59621340592214,53.8205458948749]},"properties":{"lsoa11cd":"E01011489","lsoa11nm":"Leeds 045D"}},{"type":"Feature","geometry":{"type":"Point","coordinates":[-1.55493493321332,53.8274624677988]},"properties":{"lsoa11cd":"E01011354","lsoa11nm":"Leeds 038A"}},{"type":"Feature","geometry":{"type":"Point","coordinates":[-1.58302996580565,53.8291286527822]},"properties":{"lsoa11cd":"E01011690","lsoa11nm":"Leeds 109C"}},{"type":"Feature","geometry":{"type":"Point","coordinates":[-1.54075912522875,53.7773169865081]},"properties":{"lsoa11cd":"E01011374","lsoa11nm":"Leeds 085D"}},{"type":"Feature","geometry":{"type":"Point","coordinates":[-1.57471644679633,53.8129134891091]},"properties":{"lsoa11cd":"E01011446","lsoa11nm":"Leeds 054B"}},{"type":"Feature","geometry":{"type":"Point","coordinates":[-1.5694630036144,53.8263669764552]},"properties":{"lsoa11cd":"E01011693","lsoa11nm":"Leeds 109E"}},{"type":"Feature","geometry":{"type":"Point","coordinates":[-1.57080121376295,53.8218834382701]},"properties":{"lsoa11cd":"E01011451","lsoa11nm":"Leeds 110D"}},{"type":"Feature","geometry":{"type":"Point","coordinates":[-1.57203264951554,53.8060642919485]},"properties":{"lsoa11cd":"E01011483","lsoa11nm":"Leeds 056E"}},{"type":"Feature","geometry":{"type":"Point","coordinates":[-1.60110585904685,53.7945948758423]},"properties":{"lsoa11cd":"E01011729","lsoa11nm":"Leeds 078B"}},{"type":"Feature","geometry":{"type":"Point","coordinates":[-1.61896961497539,53.8020073278922]},"properties":{"lsoa11cd":"E01032606","lsoa11nm":"Leeds 067I"}},{"type":"Feature","geometry":{"type":"Point","coordinates":[-1.58127770813693,53.7897549626231]},"properties":{"lsoa11cd":"E01011362","lsoa11nm":"Leeds 081A"}},{"type":"Feature","geometry":{"type":"Point","coordinates":[-1.61216077228983,53.7895318423785]},"properties":{"lsoa11cd":"E01011730","lsoa11nm":"Leeds 078C"}},{"type":"Feature","geometry":{"type":"Point","coordinates":[-1.57888154733453,53.8144678669424]},"properties":{"lsoa11cd":"E01011441","lsoa11nm":"Leeds 044E"}},{"type":"Feature","geometry":{"type":"Point","coordinates":[-1.51061049622261,53.8118723794741]},"properties":{"lsoa11cd":"E01011432","lsoa11nm":"Leeds 053B"}},{"type":"Feature","geometry":{"type":"Point","coordinates":[-1.5294288120812,53.7681365289801]},"properties":{"lsoa11cd":"E01011472","lsoa11nm":"Leeds 092B"}},{"type":"Feature","geometry":{"type":"Point","coordinates":[-1.53070880960609,53.7928024512329]},"properties":{"lsoa11cd":"E01033034","lsoa11nm":"Leeds 075G"}},{"type":"Feature","geometry":{"type":"Point","coordinates":[-1.58116728572304,53.8123929160492]},"properties":{"lsoa11cd":"E01011479","lsoa11nm":"Leeds 056B"}},{"type":"Feature","geometry":{"type":"Point","coordinates":[-1.55164198846881,53.7813570738455]},"properties":{"lsoa11cd":"E01011364","lsoa11nm":"Leeds 085A"}},{"type":"Feature","geometry":{"type":"Point","coordinates":[-1.57027277944558,53.7744867408311]},"properties":{"lsoa11cd":"E01011369","lsoa11nm":"Leeds 090E"}},{"type":"Feature","geometry":{"type":"Point","coordinates":[-1.59553081888195,53.8150346607559]},"properties":{"lsoa11cd":"E01011477","lsoa11nm":"Leeds 045A"}},{"type":"Feature","geometry":{"type":"Point","coordinates":[-1.57911015416215,53.7679741273116]},"properties":{"lsoa11cd":"E01011317","lsoa11nm":"Leeds 090B"}},{"type":"Feature","geometry":{"type":"Point","coordinates":[-1.61394060795041,53.7857984209553]},"properties":{"lsoa11cd":"E01011735","lsoa11nm":"Leeds 078D"}},{"type":"Feature","geometry":{"type":"Point","coordinates":[-1.54286666893142,53.7933920725905]},"properties":{"lsoa11cd":"E01033016","lsoa11nm":"Leeds 111E"}},{"type":"Feature","geometry":{"type":"Point","coordinates":[-1.57864209042148,53.8197554230792]},"properties":{"lsoa11cd":"E01011440","lsoa11nm":"Leeds 044D"}},{"type":"Feature","geometry":{"type":"Point","coordinates":[-1.5608316016373,53.7724713211299]},"properties":{"lsoa11cd":"E01011313","lsoa11nm":"Leeds 091A"}},{"type":"Feature","geometry":{"type":"Point","coordinates":[-1.58219453962753,53.8205463628297]},"properties":{"lsoa11cd":"E01011435","lsoa11nm":"Leeds 044A"}},{"type":"Feature","geometry":{"type":"Point","coordinates":[-1.53758886588027,53.8265814996428]},"properties":{"lsoa11cd":"E01011352","lsoa11nm":"Leeds 034C"}},{"type":"Feature","geometry":{"type":"Point","coordinates":[-1.5480832982889,53.7757769453728]},"properties":{"lsoa11cd":"E01011372","lsoa11nm":"Leeds 086C"}},{"type":"Feature","geometry":{"type":"Point","coordinates":[-1.60072627176534,53.7579274664905]},"properties":{"lsoa11cd":"E01011526","lsoa11nm":"Leeds 093C"}},{"type":"Feature","geometry":{"type":"Point","coordinates":[-1.57439300261468,53.8269813623902]},"properties":{"lsoa11cd":"E01011692","lsoa11nm":"Leeds 109D"}},{"type":"Feature","geometry":{"type":"Point","coordinates":[-1.51097659411773,53.819837735909]},"properties":{"lsoa11cd":"E01011647","lsoa11nm":"Leeds 037D"}},{"type":"Feature","geometry":{"type":"Point","coordinates":[-1.50219520152153,53.8164246500816]},"properties":{"lsoa11cd":"E01011424","lsoa11nm":"Leeds 047B"}},{"type":"Feature","geometry":{"type":"Point","coordinates":[-1.60674522625543,53.8266816187162]},"properties":{"lsoa11cd":"E01011485","lsoa11nm":"Leeds 033B"}},{"type":"Feature","geometry":{"type":"Point","coordinates":[-1.60258510968404,53.7990621548415]},"properties":{"lsoa11cd":"E01032608","lsoa11nm":"Leeds 067K"}},{"type":"Feature","geometry":{"type":"Point","coordinates":[-1.53452215511161,53.8152001970144]},"properties":{"lsoa11cd":"E01011360","lsoa11nm":"Leeds 042D"}},{"type":"Feature","geometry":{"type":"Point","coordinates":[-1.49774965909955,53.8265826150278]},"properties":{"lsoa11cd":"E01011643","lsoa11nm":"Leeds 037A"}},{"type":"Feature","geometry":{"type":"Point","coordinates":[-1.58591111304626,53.8190818268445]},"properties":{"lsoa11cd":"E01032945","lsoa11nm":"Leeds 044F"}},{"type":"Feature","geometry":{"type":"Point","coordinates":[-1.57184183297589,53.809369356842]},"properties":{"lsoa11cd":"E01011449","lsoa11nm":"Leeds 054E"}},{"type":"Feature","geometry":{"type":"Point","coordinates":[-1.61049079361578,53.8156171399516]},"properties":{"lsoa11cd":"E01011324","lsoa11nm":"Leeds 046A"}},{"type":"Feature","geometry":{"type":"Point","coordinates":[-1.59277144199913,53.7847893189424]},"properties":{"lsoa11cd":"E01011736","lsoa11nm":"Leeds 083B"}},{"type":"Feature","geometry":{"type":"Point","coordinates":[-1.54337812285531,53.8032155674551]},"properties":{"lsoa11cd":"E01033010","lsoa11nm":"Leeds 111B"}},{"type":"Feature","geometry":{"type":"Point","coordinates":[-1.51200986558178,53.8146265677761]},"properties":{"lsoa11cd":"E01011430","lsoa11nm":"Leeds 053A"}},{"type":"Feature","geometry":{"type":"Point","coordinates":[-1.5374867109075,53.8181243541903]},"properties":{"lsoa11cd":"E01011357","lsoa11nm":"Leeds 038C"}},{"type":"Feature","geometry":{"type":"Point","coordinates":[-1.53170183396985,53.7811326080939]},"properties":{"lsoa11cd":"E01011467","lsoa11nm":"Leeds 112A"}},{"type":"Feature","geometry":{"type":"Point","coordinates":[-1.58532552797362,53.7692199645414]},"properties":{"lsoa11cd":"E01011318","lsoa11nm":"Leeds 090C"}},{"type":"Feature","geometry":{"type":"Point","coordinates":[-1.50443605220461,53.7978020118816]},"properties":{"lsoa11cd":"E01011615","lsoa11nm":"Leeds 070A"}},{"type":"Feature","geometry":{"type":"Point","coordinates":[-1.54627703629755,53.7797836804283]},"properties":{"lsoa11cd":"E01011371","lsoa11nm":"Leeds 085B"}},{"type":"Feature","geometry":{"type":"Point","coordinates":[-1.49140556117206,53.8122232762226]},"properties":{"lsoa11cd":"E01011339","lsoa11nm":"Leeds 060A"}},{"type":"Feature","geometry":{"type":"Point","coordinates":[-1.61584645489776,53.8255548212184]},"properties":{"lsoa11cd":"E01032493","lsoa11nm":"Leeds 033F"}},{"type":"Feature","geometry":{"type":"Point","coordinates":[-1.49484129629278,53.8175517795961]},"properties":{"lsoa11cd":"E01011423","lsoa11nm":"Leeds 047A"}},{"type":"Feature","geometry":{"type":"Point","coordinates":[-1.59901592101571,53.7988161212139]},"properties":{"lsoa11cd":"E01032500","lsoa11nm":"Leeds 067H"}},{"type":"Feature","geometry":{"type":"Point","coordinates":[-1.61010005523163,53.8108926783215]},"properties":{"lsoa11cd":"E01011281","lsoa11nm":"Leeds 059A"}},{"type":"Feature","geometry":{"type":"Point","coordinates":[-1.49671710549652,53.7557573921158]},"properties":{"lsoa11cd":"E01011630","lsoa11nm":"Leeds 100B"}},{"type":"Feature","geometry":{"type":"Point","coordinates":[-1.57341068881997,53.8107276501564]},"properties":{"lsoa11cd":"E01011447","lsoa11nm":"Leeds 054C"}},{"type":"Feature","geometry":{"type":"Point","coordinates":[-1.49140214940288,53.8284826321638]},"properties":{"lsoa11cd":"E01011644","lsoa11nm":"Leeds 037B"}},{"type":"Feature","geometry":{"type":"Point","coordinates":[-1.5662476296788,53.805796633026]},"properties":{"lsoa11cd":"E01011681","lsoa11nm":"Leeds 063D"}},{"type":"Feature","geometry":{"type":"Point","coordinates":[-1.55328959803853,53.7959763998716]},"properties":{"lsoa11cd":"E01033008","lsoa11nm":"Leeds 111A"}},{"type":"Feature","geometry":{"type":"Point","coordinates":[-1.55977886950682,53.8066953855118]},"properties":{"lsoa11cd":"E01033006","lsoa11nm":"Leeds 063E"}},{"type":"Feature","geometry":{"type":"Point","coordinates":[-1.60488532045285,53.7509019766165]},"properties":{"lsoa11cd":"E01011525","lsoa11nm":"Leeds 095C"}},{"type":"Feature","geometry":{"type":"Point","coordinates":[-1.5375365664853,53.8052288809501]},"properties":{"lsoa11cd":"E01033003","lsoa11nm":"Leeds 055G"}},{"type":"Feature","geometry":{"type":"Point","coordinates":[-1.55253436813237,53.8173115452511]},"properties":{"lsoa11cd":"E01011669","lsoa11nm":"Leeds 110F"}},{"type":"Feature","geometry":{"type":"Point","coordinates":[-1.58888931415855,53.7637114772779]},"properties":{"lsoa11cd":"E01011518","lsoa11nm":"Leeds 093A"}},{"type":"Feature","geometry":{"type":"Point","coordinates":[-1.5236316043816,53.7947209411501]},"properties":{"lsoa11cd":"E01033021","lsoa11nm":"Leeds 075E"}},{"type":"Feature","geometry":{"type":"Point","coordinates":[-1.50607884414509,53.8026235800894]},"properties":{"lsoa11cd":"E01011348","lsoa11nm":"Leeds 065C"}},{"type":"Feature","geometry":{"type":"Point","coordinates":[-1.51528627078718,53.7913921675355]},"properties":{"lsoa11cd":"E01011625","lsoa11nm":"Leeds 075C"}},{"type":"Feature","geometry":{"type":"Point","coordinates":[-1.54369549908869,53.8097606879458]},"properties":{"lsoa11cd":"E01011671","lsoa11nm":"Leeds 055B"}},{"type":"Feature","geometry":{"type":"Point","coordinates":[-1.54953687276692,53.813969005668]},"properties":{"lsoa11cd":"E01011670","lsoa11nm":"Leeds 055A"}},{"type":"Feature","geometry":{"type":"Point","coordinates":[-1.58687513536886,53.8090154458379]},"properties":{"lsoa11cd":"E01011482","lsoa11nm":"Leeds 056D"}},{"type":"Feature","geometry":{"type":"Point","coordinates":[-1.61332504606722,53.7951772555773]},"properties":{"lsoa11cd":"E01011725","lsoa11nm":"Leeds 078A"}},{"type":"Feature","geometry":{"type":"Point","coordinates":[-1.54995085541681,53.7894725951466]},"properties":{"lsoa11cd":"E01033032","lsoa11nm":"Leeds 082F"}},{"type":"Feature","geometry":{"type":"Point","coordinates":[-1.58481496238166,53.7967251569921]},"properties":{"lsoa11cd":"E01011293","lsoa11nm":"Leeds 071C"}},{"type":"Feature","geometry":{"type":"Point","coordinates":[-1.52146093475189,53.810852542968]},"properties":{"lsoa11cd":"E01011673","lsoa11nm":"Leeds 064B"}},{"type":"Feature","geometry":{"type":"Point","coordinates":[-1.5397831750201,53.8051869367558]},"properties":{"lsoa11cd":"E01033002","lsoa11nm":"Leeds 055F"}},{"type":"Feature","geometry":{"type":"Point","coordinates":[-1.52131716183109,53.7520909052214]},"properties":{"lsoa11cd":"E01011502","lsoa11nm":"Leeds 099C"}},{"type":"Feature","geometry":{"type":"Point","coordinates":[-1.56037884991792,53.823031604322]},"properties":{"lsoa11cd":"E01011450","lsoa11nm":"Leeds 038D"}}]}