{"type": "FeatureCollection", "place": "Leeds city centre", "source": "OpenStreetMap via Overpass API", "features": [{"type": "Feature", "geometry": {"type": "Point", "coordinates": [-1.56177, 53.807707]}, "properties": {"category": "university", "name": "University of Leeds (West Campus)"}}, {"type": "Feature", "geometry": {"type": "Point", "coordinates": [-1.579994, 53.807632]}, "properties": {"category": "pharmacy", "name": "Well Pharmacy"}}, {"type": "Feature", "geometry": {"type": "Point", "coordinates": [-1.58336, 53.818649]}, "properties": {"category": "pharmacy", "name": "Leeds Pharmacy"}}, {"type": "Feature", "geometry": {"type": "Point", "coordinates": [-1.578083, 53.821964]}, "properties": {"category": "supermarket", "name": "Sainsbury's"}}, {"type": "Feature", "geometry": {"type": "Point", "coordinates": [-1.520513, 53.806715]}, "properties": {"category": "hospital", "name": "Lincoln Wing - A Block Entrance"}}, {"type": "Feature", "geometry": {"type": "Point", "coordinates": [-1.52133, 53.806396]}, "properties": {"category": "hospital", "name": "St James's Hospital A&E"}}, {"type": "Feature", "geometry": {"type": "Point", "coordinates": [-1.518805, 53.808435]}, "properties": {"category": "hospital", "name": "Cancer Genetics Building"}}, {"type": "Feature", "geometry": {"type": "Point", "coordinates": [-1.587354, 53.797862]}, "properties": {"category": "supermarket", "name": "Polish Shop"}}, {"type": "Feature", "geometry": {"type": "Point", "coordinates": [-1.544825, 53.776833]}, "properties": {"category": "pharmacy", "name": ""}}, {"type": "Feature", "geometry": {"type": "Point", "coordinates": [-1.609287, 53.815001]}, "properties": {"category": "university", "name": "Kirkstall Brewery Residences"}}, {"type": "Feature", "geometry": {"type": "Point", "coordinates": [-1.56461, 53.828375]}, "properties": {"category": "supermarket", "name": "Aldi"}}, {"type": "Feature", "geometry": {"type": "Point", "coordinates": [-1.544959, 53.802191]}, "properties": {"category": "supermarket", "name": "Morrisons"}}, {"type": "Feature", "geometry": {"type": "Point", "coordinates": [-1.567907, 53.811455]}, "properties": {"category": "supermarket", "name": "Continental Supermarket"}}, {"type": "Feature", "geometry": {"type": "Point", "coordinates": [-1.587104, 53.807252]}, "properties": {"category": "supermarket", "name": "Asda"}}, {"type": "Feature", "geometry": {"type": "Point", "coordinates": [-1.61821, 53.792218]}, "properties": {"category": "pharmacy", "name": "Tong Road Pharmacy"}}, {"type": "Feature", "geometry": {"type": "Point", "coordinates": [-1.600307, 53.800864]}, "properties": {"category": "pharmacy", "name": "Armley Pharmacy"}}, {"type": "Feature", "geometry": {"type": "Point", "coordinates": [-1.587903, 53.798217]}, "properties": {"category": "college", "name": "National Martial Arts College"}}, {"type": "Feature", "geometry": {"type": "Point", "coordinates": [-1.570078, 53.810002]}, "properties": {"category": "supermarket", "name": "Abu Bakar"}}, {"type": "Feature", "geometry": {"type": "Point", "coordinates": [-1.56851, 53.812634]}, "properties": {"category": "pharmacy", "name": "Brudenell Pharmacy"}}, {"type": "Feature", "geometry": {"type": "Point", "coordinates": [-1.58964, 53.797356]}, "properties": {"category": "supermarket", "name": "Armley Food Centre"}}, {"type": "Feature", "geometry": {"type": "Point", "coordinates": [-1.54527, 53.799298]}, "properties": {"category": "college", "name": "Leeds Mathematics School"}}, {"type": "Feature", "geometry": {"type": "Point", "coordinates": [-1.543595, 53.799618]}, "properties": {"category": "supermarket", "name": "Sainsbury's"}}, {"type": "Feature", "geometry": {"type": "Point", "coordinates": [-1.544406, 53.801594]}, "properties": {"category": "pharmacy", "name": "Superdrug"}}, {"type": "Feature", "geometry": {"type": "Point", "coordinates": [-1.548816, 53.796787]}, "properties": {"category": "university", "name": "Leeds Law School"}}, {"type": "Feature", "geometry": {"type": "Point", "coordinates": [-1.58201, 53.768238]}, "properties": {"category": "school", "name": "Cottingley Children's Centre"}}, {"type": "Feature", "geometry": {"type": "Point", "coordinates": [-1.582092, 53.768465]}, "properties": {"category": "school", "name": "Springfield Day Centre"}}, {"type": "Feature", "geometry": {"type": "Point", "coordinates": [-1.600894, 53.782317]}, "properties": {"category": "pharmacy", "name": "Freeman's Pharmacy"}}, {"type": "Feature", "geometry": {"type": "Point", "coordinates": [-1.522174, 53.807636]}, "properties": {"category": "hospital", "name": "Paul Sykes Urology Centre"}}, {"type": "Feature", "geometry": {"type": "Point", "coordinates": [-1.591506, 53.827513]}, "properties": {"category": "university", "name": "Reception/Helpzone"}}, {"type": "Feature", "geometry": {"type": "Point", "coordinates": [-1.556072, 53.806624]}, "properties": {"category": "supermarket", "name": "LUU Co-op"}}, {"type": "Feature", "geometry": {"type": "Point", "coordinates": [-1.535511, 53.82559]}, "properties": {"category": "supermarket", "name": "Lidl"}}, {"type": "Feature", "geometry": {"type": "Point", "coordinates": [-1.547621, 53.801232]}, "properties": {"category": "university", "name": "Northern Film School"}}, {"type": "Feature", "geometry": {"type": "Point", "coordinates": [-1.53387, 53.813585]}, "properties": {"category": "supermarket", "name": "CC Continental Supermarket"}}, {"type": "Feature", "geometry": {"type": "Point", "coordinates": [-1.57671, 53.820965]}, "properties": {"category": "pharmacy", "name": "Headingley Pharmacy"}}, {"type": "Feature", "geometry": {"type": "Point", "coordinates": [-1.551176, 53.807377]}, "properties": {"category": "supermarket", "name": "Taste the Orient"}}, {"type": "Feature", "geometry": {"type": "Point", "coordinates": [-1.491668, 53.81602]}, "properties": {"category": "pharmacy", "name": "Oakwood Lane Pharmacy"}}, {"type": "Feature", "geometry": {"type": "Point", "coordinates": [-1.495183, 53.820879]}, "properties": {"category": "pharmacy", "name": "Boots"}}, {"type": "Feature", "geometry": {"type": "Point", "coordinates": [-1.562865, 53.764316]}, "properties": {"category": "pharmacy", "name": "The Living Care Pharmacy"}}, {"type": "Feature", "geometry": {"type": "Point", "coordinates": [-1.578591, 53.822487]}, "properties": {"category": "pharmacy", "name": "Boots"}}, {"type": "Feature", "geometry": {"type": "Point", "coordinates": [-1.578396, 53.822264]}, "properties": {"category": "pharmacy", "name": "Superdrug"}}, {"type": "Feature", "geometry": {"type": "Point", "coordinates": [-1.54113, 53.796307]}, "properties": {"category": "supermarket", "name": "Out Of This World"}}, {"type": "Feature", "geometry": {"type": "Point", "coordinates": [-1.537531, 53.795576]}, "properties": {"category": "college", "name": "Leeds Academy For Hairdressing and Barbering"}}, {"type": "Feature", "geometry": {"type": "Point", "coordinates": [-1.539978, 53.799469]}, "properties": {"category": "supermarket", "name": "Regency Smart Supermarket"}}, {"type": "Feature", "geometry": {"type": "Point", "coordinates": [-1.539868, 53.799938]}, "properties": {"category": "supermarket", "name": "Hang Sing Hong"}}, {"type": "Feature", "geometry": {"type": "Point", "coordinates": [-1.53127, 53.772204]}, "properties": {"category": "pharmacy", "name": "Boots"}}, {"type": "Feature", "geometry": {"type": "Point", "coordinates": [-1.526068, 53.802158]}, "properties": {"category": "pharmacy", "name": "Well Pharmacy"}}, {"type": "Feature", "geometry": {"type": "Point", "coordinates": [-1.576336, 53.811896]}, "properties": {"category": "pharmacy", "name": "Cardigan Road Pharmacy"}}, {"type": "Feature", "geometry": {"type": "Point", "coordinates": [-1.54778, 53.795067]}, "properties": {"category": "pharmacy", "name": "Boots"}}, {"type": "Feature", "geometry": {"type": "Point", "coordinates": [-1.516102, 53.817375]}, "properties": {"category": "supermarket", "name": "Roundhay Supermarket"}}, {"type": "Feature", "geometry": {"type": "Point", "coordinates": [-1.615948, 53.827573]}, "properties": {"category": "pharmacy", "name": ""}}, {"type": "Feature", "geometry": {"type": "Point", "coordinates": [-1.567966, 53.805948]}, "properties": {"category": "pharmacy", "name": "Hyde Park Pharmacy"}}, {"type": "Feature", "geometry": {"type": "Point", "coordinates": [-1.553467, 53.805399]}, "properties": {"category": "university", "name": "School of Computing"}}, {"type": "Feature", "geometry": {"type": "Point", "coordinates": [-1.493983, 53.820382]}, "properties": {"category": "pharmacy", "name": ""}}, {"type": "Feature", "geometry": {"type": "Point", "coordinates": [-1.510511, 53.822664]}, "properties": {"category": "pharmacy", "name": "Tesco"}}, {"type": "Feature", "geometry": {"type": "Point", "coordinates": [-1.523106, 53.762359]}, "properties": {"category": "pharmacy", "name": "Belle Isle Pharmacy"}}, {"type": "Feature", "geometry": {"type": "Point", "coordinates": [-1.539976, 53.79927]}, "properties": {"category": "supermarket", "name": "Nong Fern Thai Supermarket"}}, {"type": "Feature", "geometry": {"type": "Point", "coordinates": [-1.544115, 53.802088]}, "properties": {"category": "supermarket", "name": "Heron Foods"}}, {"type": "Feature", "geometry": {"type": "Point", "coordinates": [-1.517465, 53.813561]}, "properties": {"category": "supermarket", "name": "Noor Foods"}}, {"type": "Feature", "geometry": {"type": "Point", "coordinates": [-1.544758, 53.801272]}, "properties": {"category": "supermarket", "name": "Sing Kee Supermarket"}}, {"type": "Feature", "geometry": {"type": "Point", "coordinates": [-1.520086, 53.816735]}, "properties": {"category": "supermarket", "name": "Faizan Khan International Supermarket"}}, {"type": "Feature", "geometry": {"type": "Point", "coordinates": [-1.52229, 53.805568]}, "properties": {"category": "pharmacy", "name": "Boots"}}, {"type": "Feature", "geometry": {"type": "Point", "coordinates": [-1.522392, 53.805569]}, "properties": {"category": "supermarket", "name": "Amigo"}}, {"type": "Feature", "geometry": {"type": "Point", "coordinates": [-1.521486, 53.806065]}, "properties": {"category": "supermarket", "name": "Amigo"}}, {"type": "Feature", "geometry": {"type": "Point", "coordinates": [-1.521116, 53.807966]}, "properties": {"category": "supermarket", "name": "Amigo"}}, {"type": "Feature", "geometry": {"type": "Point", "coordinates": [-1.559658, 53.798892]}, "properties": {"category": "college", "name": "Health Education England"}}, {"type": "Feature", "geometry": {"type": "Point", "coordinates": [-1.508827, 53.808989]}, "properties": {"category": "pharmacy", "name": "Harehills Pharmacy"}}, {"type": "Feature", "geometry": {"type": "Point", "coordinates": [-1.523051, 53.792558]}, "properties": {"category": "pharmacy", "name": "Livingcare Pharmacy"}}, {"type": "Feature", "geometry": {"type": "Point", "coordinates": [-1.517901, 53.79414]}, "properties": {"category": "pharmacy", "name": "Livingcare Pharmacy"}}, {"type": "Feature", "geometry": {"type": "Point", "coordinates": [-1.511098, 53.797784]}, "properties": {"category": "pharmacy", "name": "Alsyed Pharmacy"}}, {"type": "Feature", "geometry": {"type": "Point", "coordinates": [-1.525968, 53.811331]}, "properties": {"category": "pharmacy", "name": "Cohens Chemist"}}, {"type": "Feature", "geometry": {"type": "Point", "coordinates": [-1.521649, 53.812213]}, "properties": {"category": "pharmacy", "name": "Khan Pharmacy"}}, {"type": "Feature", "geometry": {"type": "Point", "coordinates": [-1.518578, 53.815821]}, "properties": {"category": "pharmacy", "name": "Roundhay Pharmacy"}}, {"type": "Feature", "geometry": {"type": "Point", "coordinates": [-1.517032, 53.81535]}, "properties": {"category": "pharmacy", "name": "Sky Pharmacy"}}, {"type": "Feature", "geometry": {"type": "Point", "coordinates": [-1.511177, 53.810502]}, "properties": {"category": "pharmacy", "name": "Imaan Pharmacy"}}, {"type": "Feature", "geometry": {"type": "Point", "coordinates": [-1.566247, 53.77258]}, "properties": {"category": "pharmacy", "name": "Well Pharmacy"}}, {"type": "Feature", "geometry": {"type": "Point", "coordinates": [-1.554696, 53.777656]}, "properties": {"category": "pharmacy", "name": "Al Shafa Pharmacy"}}, {"type": "Feature", "geometry": {"type": "Point", "coordinates": [-1.506659, 53.826562]}, "properties": {"category": "pharmacy", "name": "Oakwood Pharmacy"}}, {"type": "Feature", "geometry": {"type": "Point", "coordinates": [-1.546197, 53.825464]}, "properties": {"category": "pharmacy", "name": "Knights Pharmacy"}}, {"type": "Feature", "geometry": {"type": "Point", "coordinates": [-1.534232, 53.825929]}, "properties": {"category": "pharmacy", "name": "Medichem Pharmacy"}}, {"type": "Feature", "geometry": {"type": "Point", "coordinates": [-1.532088, 53.82116]}, "properties": {"category": "pharmacy", "name": "Medichem Pharmacy"}}, {"type": "Feature", "geometry": {"type": "Point", "coordinates": [-1.531917, 53.81629]}, "properties": {"category": "pharmacy", "name": "Shifa Pharmacy"}}, {"type": "Feature", "geometry": {"type": "Point", "coordinates": [-1.537838, 53.828978]}, "properties": {"category": "pharmacy", "name": "Knights Pharmacy"}}, {"type": "Feature", "geometry": {"type": "Point", "coordinates": [-1.574631, 53.756815]}, "properties": {"category": "pharmacy", "name": "Boots"}}, {"type": "Feature", "geometry": {"type": "Point", "coordinates": [-1.551886, 53.790548]}, "properties": {"category": "pharmacy", "name": "Living Care Deliveries Leeds"}}, {"type": "Feature", "geometry": {"type": "Point", "coordinates": [-1.556325, 53.801391]}, "properties": {"category": "college", "name": "Swarthmore Education Centre"}}, {"type": "Feature", "geometry": {"type": "Point", "coordinates": [-1.52767, 53.779833]}, "properties": {"category": "school", "name": "Involve"}}, {"type": "Feature", "geometry": {"type": "Point", "coordinates": [-1.544, 53.794143]}, "properties": {"category": "supermarket", "name": "Co-op Food"}}, {"type": "Feature", "geometry": {"type": "Point", "coordinates": [-1.50747, 53.79961]}, "properties": {"category": "supermarket", "name": "Karpaty Food Centre"}}, {"type": "Feature", "geometry": {"type": "Point", "coordinates": [-1.493703, 53.82012]}, "properties": {"category": "pharmacy", "name": ""}}, {"type": "Feature", "geometry": {"type": "Point", "coordinates": [-1.582418, 53.818664]}, "properties": {"category": "university", "name": "Carnegie Pavilion"}}, {"type": "Feature", "geometry": {"type": "Point", "coordinates": [-1.583566, 53.769024]}, "properties": {"category": "pharmacy", "name": "Cottingley Pharmacy"}}, {"type": "Feature", "geometry": {"type": "Point", "coordinates": [-1.543514, 53.802346]}, "properties": {"category": "supermarket", "name": "Co-op Food"}}, {"type": "Feature", "geometry": {"type": "Point", "coordinates": [-1.59517, 53.79641]}, "properties": {"category": "hospital", "name": "Sir Karl Cohen Square"}}, {"type": "Feature", "geometry": {"type": "Point", "coordinates": [-1.563061, 53.800557]}, "properties": {"category": "supermarket", "name": "HOP (Home Of Property Ltd)"}}, {"type": "Feature", "geometry": {"type": "Point", "coordinates": [-1.553654, 53.805416]}, "properties": {"category": "university", "name": "HELIX"}}, {"type": "Feature", "geometry": {"type": "Point", "coordinates": [-1.551452, 53.806263]}, "properties": {"category": "university", "name": "Virtuocity"}}, {"type": "Feature", "geometry": {"type": "Point", "coordinates": [-1.535392, 53.808096]}, "properties": {"category": "college", "name": "Leeds City College: North Street Campus"}}, {"type": "Feature", "geometry": {"type": "Point", "coordinates": [-1.529273, 53.750155]}, "properties": {"category": "supermarket", "name": "Aldi"}}, {"type": "Feature", "geometry": {"type": "Point", "coordinates": [-1.532553, 53.805155]}, "properties": {"category": "supermarket", "name": "Azaban Supermarket"}}, {"type": "Feature", "geometry": {"type": "Point", "coordinates": [-1.544902, 53.79897]}, "properties": {"category": "supermarket", "name": "Hello Japan"}}, {"type": "Feature", "geometry": {"type": "Point", "coordinates": [-1.541113, 53.797169]}, "properties": {"category": "supermarket", "name": "Tesco Express"}}, {"type": "Feature", "geometry": {"type": "Point", "coordinates": [-1.571777, 53.813628]}, "properties": {"category": "school", "name": "Brudenell Primary School"}}, {"type": "Feature", "geometry": {"type": "Point", "coordinates": [-1.585381, 53.789073]}, "properties": {"category": "supermarket", "name": "Asda"}}, {"type": "Feature", "geometry": {"type": "Point", "coordinates": [-1.549324, 53.823162]}, "properties": {"category": "school", "name": "Alder Tree Primary Academy"}}, {"type": "Feature", "geometry": {"type": "Point", "coordinates": [-1.554362, 53.815584]}, "properties": {"category": "school", "name": "Quarry Mount Primary School"}}, {"type": "Feature", "geometry": {"type": "Point", "coordinates": [-1.574127, 53.822339]}, "properties": {"category": "school", "name": "Shire Oak VC Primary School"}}, {"type": "Feature", "geometry": {"type": "Point", "coordinates": [-1.565287, 53.824932]}, "properties": {"category": "college", "name": ""}}, {"type": "Feature", "geometry": {"type": "Point", "coordinates": [-1.558656, 53.800627]}, "properties": {"category": "college", "name": "Leeds City College (Park Lane Campus)"}}, {"type": "Feature", "geometry": {"type": "Point", "coordinates": [-1.543751, 53.79521]}, "properties": {"category": "university", "name": "Leeds Trinity University City Campus"}}, {"type": "Feature", "geometry": {"type": "Point", "coordinates": [-1.552852, 53.802357]}, "properties": {"category": "hospital", "name": "Leeds General Infirmary"}}, {"type": "Feature", "geometry": {"type": "Point", "coordinates": [-1.581853, 53.772862]}, "properties": {"category": "supermarket", "name": "The Food Warehouse"}}, {"type": "Feature", "geometry": {"type": "Point", "coordinates": [-1.547605, 53.812663]}, "properties": {"category": "hospital", "name": "Woodhouse Health Centre"}}, {"type": "Feature", "geometry": {"type": "Point", "coordinates": [-1.540947, 53.777889]}, "properties": {"category": "college", "name": "Leeds City College: Joseph Priestley Centre Beeston"}}, {"type": "Feature", "geometry": {"type": "Point", "coordinates": [-1.547547, 53.778875]}, "properties": {"category": "school", "name": "St Francis of Assisi Catholic Primary School"}}, {"type": "Feature", "geometry": {"type": "Point", "coordinates": [-1.61259, 53.799778]}, "properties": {"category": "hospital", "name": "St Mary's Hospital"}}, {"type": "Feature", "geometry": {"type": "Point", "coordinates": [-1.537078, 53.826831]}, "properties": {"category": "school", "name": "Chapel Allerton Primary School"}}, {"type": "Feature", "geometry": {"type": "Point", "coordinates": [-1.610556, 53.755714]}, "properties": {"category": "school", "name": "Asquith Primary School"}}, {"type": "Feature", "geometry": {"type": "Point", "coordinates": [-1.607156, 53.750695]}, "properties": {"category": "school", "name": "Morley Victoria Primary School"}}, {"type": "Feature", "geometry": {"type": "Point", "coordinates": [-1.596638, 53.758651]}, "properties": {"category": "school", "name": "Churwell Primary Academy"}}, {"type": "Feature", "geometry": {"type": "Point", "coordinates": [-1.548032, 53.783307]}, "properties": {"category": "school", "name": ""}}, {"type": "Feature", "geometry": {"type": "Point", "coordinates": [-1.543227, 53.778095]}, "properties": {"category": "college", "name": "Park Lane College"}}, {"type": "Feature", "geometry": {"type": "Point", "coordinates": [-1.553607, 53.773413]}, "properties": {"category": "school", "name": "Park View Primary Academy"}}, {"type": "Feature", "geometry": {"type": "Point", "coordinates": [-1.519987, 53.751355]}, "properties": {"category": "school", "name": "Clapgate Primary School"}}, {"type": "Feature", "geometry": {"type": "Point", "coordinates": [-1.523148, 53.756561]}, "properties": {"category": "school", "name": "Broomfield Specialist Inclusive Learning Centre"}}, {"type": "Feature", "geometry": {"type": "Point", "coordinates": [-1.525319, 53.761302]}, "properties": {"category": "school", "name": "Springwell Leeds Academy"}}, {"type": "Feature", "geometry": {"type": "Point", "coordinates": [-1.584986, 53.768555]}, "properties": {"category": "school", "name": "Lift Cottingley"}}, {"type": "Feature", "geometry": {"type": "Point", "coordinates": [-1.530677, 53.761504]}, "properties": {"category": "school", "name": "Windmill Primary School"}}, {"type": "Feature", "geometry": {"type": "Point", "coordinates": [-1.54494, 53.750218]}, "properties": {"category": "school", "name": "Middleton St Mary's Church of England Voluntary Controlled Primary School"}}, {"type": "Feature", "geometry": {"type": "Point", "coordinates": [-1.546843, 53.750003]}, "properties": {"category": "school", "name": "St Philip's Catholic Primary School"}}, {"type": "Feature", "geometry": {"type": "Point", "coordinates": [-1.556295, 53.76083]}, "properties": {"category": "school", "name": "Cockburn School"}}, {"type": "Feature", "geometry": {"type": "Point", "coordinates": [-1.52804, 53.77191]}, "properties": {"category": "school", "name": "Hunslet Carr Primary School"}}, {"type": "Feature", "geometry": {"type": "Point", "coordinates": [-1.610583, 53.782598]}, "properties": {"category": "school", "name": "Cobden Primary School"}}, {"type": "Feature", "geometry": {"type": "Point", "coordinates": [-1.620382, 53.785869]}, "properties": {"category": "school", "name": "Lawns Park Primary School"}}, {"type": "Feature", "geometry": {"type": "Point", "coordinates": [-1.618936, 53.783851]}, "properties": {"category": "school", "name": "The Farnley Academy"}}, {"type": "Feature", "geometry": {"type": "Point", "coordinates": [-1.618552, 53.790724]}, "properties": {"category": "school", "name": "Ryecroft Academy"}}, {"type": "Feature", "geometry": {"type": "Point", "coordinates": [-1.563867, 53.78415]}, "properties": {"category": "school", "name": "Cockburn Ingram Road Academy"}}, {"type": "Feature", "geometry": {"type": "Point", "coordinates": [-1.588762, 53.790551]}, "properties": {"category": "school", "name": "Five Lanes Primary School"}}, {"type": "Feature", "geometry": {"type": "Point", "coordinates": [-1.494653, 53.813522]}, "properties": {"category": "supermarket", "name": "Lidl"}}, {"type": "Feature", "geometry": {"type": "Point", "coordinates": [-1.567613, 53.77005]}, "properties": {"category": "school", "name": "Hugh Gaitskell Primary School"}}, {"type": "Feature", "geometry": {"type": "Point", "coordinates": [-1.587151, 53.808312]}, "properties": {"category": "school", "name": "Kirkstall Valley Primary School"}}, {"type": "Feature", "geometry": {"type": "Point", "coordinates": [-1.526347, 53.793299]}, "properties": {"category": "school", "name": "Mount St Mary's Catholic High School"}}, {"type": "Feature", "geometry": {"type": "Point", "coordinates": [-1.532938, 53.797511]}, "properties": {"category": "college", "name": "Leeds Conservatoire"}}, {"type": "Feature", "geometry": {"type": "Point", "coordinates": [-1.546374, 53.801696]}, "properties": {"category": "university", "name": "Leeds Arts University"}}, {"type": "Feature", "geometry": {"type": "Point", "coordinates": [-1.55612, 53.806666]}, "properties": {"category": "university", "name": "University of Leeds"}}, {"type": "Feature", "geometry": {"type": "Point", "coordinates": [-1.567705, 53.828473]}, "properties": {"category": "supermarket", "name": "Waitrose"}}, {"type": "Feature", "geometry": {"type": "Point", "coordinates": [-1.512127, 53.800701]}, "properties": {"category": "school", "name": "St Patrick Catholic Primary School"}}, {"type": "Feature", "geometry": {"type": "Point", "coordinates": [-1.51065, 53.802053]}, "properties": {"category": "school", "name": "Co-op Academy Brownhill"}}, {"type": "Feature", "geometry": {"type": "Point", "coordinates": [-1.573619, 53.756089]}, "properties": {"category": "supermarket", "name": "Sainsbury's"}}, {"type": "Feature", "geometry": {"type": "Point", "coordinates": [-1.557068, 53.802974]}, "properties": {"category": "hospital", "name": "Little Woodhouse Hall"}}, {"type": "Feature", "geometry": {"type": "Point", "coordinates": [-1.595568, 53.812102]}, "properties": {"category": "school", "name": "Sacred Heart Catholic Primary"}}, {"type": "Feature", "geometry": {"type": "Point", "coordinates": [-1.530296, 53.822421]}, "properties": {"category": "hospital", "name": "Chapel Allerton Hospital"}}, {"type": "Feature", "geometry": {"type": "Point", "coordinates": [-1.560211, 53.78511]}, "properties": {"category": "pharmacy", "name": "Cohens Chemist"}}, {"type": "Feature", "geometry": {"type": "Point", "coordinates": [-1.560468, 53.786589]}, "properties": {"category": "supermarket", "name": "Venus Supermarket"}}, {"type": "Feature", "geometry": {"type": "Point", "coordinates": [-1.576105, 53.792798]}, "properties": {"category": "school", "name": "Castleton Primary School"}}, {"type": "Feature", "geometry": {"type": "Point", "coordinates": [-1.607242, 53.794757]}, "properties": {"category": "school", "name": "Dixons Unity Academy"}}, {"type": "Feature", "geometry": {"type": "Point", "coordinates": [-1.549102, 53.807373]}, "properties": {"category": "hospital", "name": "Leeds Student Medical Practice"}}, {"type": "Feature", "geometry": {"type": "Point", "coordinates": [-1.551094, 53.808814]}, "properties": {"category": "college", "name": "Leeds Arts University"}}, {"type": "Feature", "geometry": {"type": "Point", "coordinates": [-1.529273, 53.779407]}, "properties": {"category": "supermarket", "name": "Morrisons"}}, {"type": "Feature", "geometry": {"type": "Point", "coordinates": [-1.515286, 53.8176]}, "properties": {"category": "supermarket", "name": "Continental Supermarket"}}, {"type": "Feature", "geometry": {"type": "Point", "coordinates": [-1.510878, 53.822739]}, "properties": {"category": "supermarket", "name": "Tesco"}}, {"type": "Feature", "geometry": {"type": "Point", "coordinates": [-1.521557, 53.807181]}, "properties": {"category": "hospital", "name": "St. James's University Hospital"}}, {"type": "Feature", "geometry": {"type": "Point", "coordinates": [-1.494844, 53.820661]}, "properties": {"category": "supermarket", "name": "The Co-operative Food"}}, {"type": "Feature", "geometry": {"type": "Point", "coordinates": [-1.584761, 53.793581]}, "properties": {"category": "school", "name": "St Bartholomew's CofE Voluntary Controlled Primary School"}}, {"type": "Feature", "geometry": {"type": "Point", "coordinates": [-1.589489, 53.801033]}, "properties": {"category": "school", "name": "Armley Park Primary School"}}, {"type": "Feature", "geometry": {"type": "Point", "coordinates": [-1.590255, 53.799314]}, "properties": {"category": "hospital", "name": "Parkside Lodge"}}, {"type": "Feature", "geometry": {"type": "Point", "coordinates": [-1.603807, 53.793796]}, "properties": {"category": "school", "name": "Whingate Primary School"}}, {"type": "Feature", "geometry": {"type": "Point", "coordinates": [-1.577092, 53.812209]}, "properties": {"category": "supermarket", "name": "Co-op Food"}}, {"type": "Feature", "geometry": {"type": "Point", "coordinates": [-1.524204, 53.778755]}, "properties": {"category": "school", "name": "Low Road Primary School"}}, {"type": "Feature", "geometry": {"type": "Point", "coordinates": [-1.529283, 53.781828]}, "properties": {"category": "school", "name": "St Joseph's Catholic Primary School"}}, {"type": "Feature", "geometry": {"type": "Point", "coordinates": [-1.528647, 53.777543]}, "properties": {"category": "school", "name": "St Marys Church of England Primary Academy"}}, {"type": "Feature", "geometry": {"type": "Point", "coordinates": [-1.537498, 53.764829]}, "properties": {"category": "school", "name": "Cockburn John Charles Academy"}}, {"type": "Feature", "geometry": {"type": "Point", "coordinates": [-1.543627, 53.777962]}, "properties": {"category": "school", "name": "Hunslet Moor Primary School"}}, {"type": "Feature", "geometry": {"type": "Point", "coordinates": [-1.545395, 53.781813]}, "properties": {"category": "school", "name": "Reach Primary Learning Centre"}}, {"type": "Feature", "geometry": {"type": "Point", "coordinates": [-1.54873, 53.771116]}, "properties": {"category": "supermarket", "name": "Syrenka"}}, {"type": "Feature", "geometry": {"type": "Point", "coordinates": [-1.569869, 53.828032]}, "properties": {"category": "hospital", "name": "Mill Garth Hospital"}}, {"type": "Feature", "geometry": {"type": "Point", "coordinates": [-1.510662, 53.812682]}, "properties": {"category": "supermarket", "name": "Morrisons"}}, {"type": "Feature", "geometry": {"type": "Point", "coordinates": [-1.513882, 53.811891]}, "properties": {"category": "school", "name": "Harehills Primary School"}}, {"type": "Feature", "geometry": {"type": "Point", "coordinates": [-1.506358, 53.814118]}, "properties": {"category": "school", "name": "St Augustine's Catholic Primary School, A Voluntary Academy"}}, {"type": "Feature", "geometry": {"type": "Point", "coordinates": [-1.529861, 53.800401]}, "properties": {"category": "school", "name": "St Peter's Church of England Primary School"}}, {"type": "Feature", "geometry": {"type": "Point", "coordinates": [-1.596785, 53.799415]}, "properties": {"category": "school", "name": "Christ Church Upper Armley Church of England Primary School"}}, {"type": "Feature", "geometry": {"type": "Point", "coordinates": [-1.57021, 53.767249]}, "properties": {"category": "school", "name": "Two Willows Childrens' Centre"}}, {"type": "Feature", "geometry": {"type": "Point", "coordinates": [-1.575689, 53.816999]}, "properties": {"category": "school", "name": "Spring Bank Primary School"}}, {"type": "Feature", "geometry": {"type": "Point", "coordinates": [-1.50891, 53.81627]}, "properties": {"category": "school", "name": "Hovingham Primary School"}}, {"type": "Feature", "geometry": {"type": "Point", "coordinates": [-1.526355, 53.815022]}, "properties": {"category": "school", "name": "Hillcrest Academy"}}, {"type": "Feature", "geometry": {"type": "Point", "coordinates": [-1.489748, 53.816214]}, "properties": {"category": "school", "name": "West Oaks School"}}, {"type": "Feature", "geometry": {"type": "Point", "coordinates": [-1.498288, 53.813346]}, "properties": {"category": "school", "name": "Co-op Academy Oakwood"}}, {"type": "Feature", "geometry": {"type": "Point", "coordinates": [-1.505472, 53.811635]}, "properties": {"category": "school", "name": "Co-op Academy Woodlands"}}, {"type": "Feature", "geometry": {"type": "Point", "coordinates": [-1.515823, 53.788659]}, "properties": {"category": "school", "name": ""}}, {"type": "Feature", "geometry": {"type": "Point", "coordinates": [-1.519041, 53.792179]}, "properties": {"category": "school", "name": "Richmond Hill Academy"}}, {"type": "Feature", "geometry": {"type": "Point", "coordinates": [-1.565433, 53.767646]}, "properties": {"category": "supermarket", "name": "Asda"}}, {"type": "Feature", "geometry": {"type": "Point", "coordinates": [-1.536732, 53.796326]}, "properties": {"category": "supermarket", "name": "Co-op Food"}}, {"type": "Feature", "geometry": {"type": "Point", "coordinates": [-1.539655, 53.788679]}, "properties": {"category": "pharmacy", "name": "Boots"}}, {"type": "Feature", "geometry": {"type": "Point", "coordinates": [-1.539612, 53.788877]}, "properties": {"category": "supermarket", "name": "M&S Foodhall"}}, {"type": "Feature", "geometry": {"type": "Point", "coordinates": [-1.584037, 53.805638]}, "properties": {"category": "supermarket", "name": "Aldi"}}, {"type": "Feature", "geometry": {"type": "Point", "coordinates": [-1.534975, 53.790708]}, "properties": {"category": "school", "name": "The Ruth Gorse Academy"}}, {"type": "Feature", "geometry": {"type": "Point", "coordinates": [-1.536776, 53.790272]}, "properties": {"category": "college", "name": "Leeds College of Building (Hunslet Campus)"}}, {"type": "Feature", "geometry": {"type": "Point", "coordinates": [-1.556835, 53.809725]}, "properties": {"category": "university", "name": "Energy Building"}}, {"type": "Feature", "geometry": {"type": "Point", "coordinates": [-1.566397, 53.82677]}, "properties": {"category": "pharmacy", "name": "Meanwood Pharmacy"}}, {"type": "Feature", "geometry": {"type": "Point", "coordinates": [-1.521729, 53.814538]}, "properties": {"category": "school", "name": "Bankside Primary School"}}, {"type": "Feature", "geometry": {"type": "Point", "coordinates": [-1.557613, 53.817979]}, "properties": {"category": "school", "name": "Leeds City Academy"}}, {"type": "Feature", "geometry": {"type": "Point", "coordinates": [-1.580506, 53.80614]}, "properties": {"category": "supermarket", "name": "Abu Bakr"}}, {"type": "Feature", "geometry": {"type": "Point", "coordinates": [-1.595541, 53.811952]}, "properties": {"category": "school", "name": "Sacred Heart Catholic Primary School"}}, {"type": "Feature", "geometry": {"type": "Point", "coordinates": [-1.595891, 53.812461]}, "properties": {"category": "school", "name": "Beecroft Primary School"}}, {"type": "Feature", "geometry": {"type": "Point", "coordinates": [-1.580603, 53.796315]}, "properties": {"category": "school", "name": "Holy Family Catholic Primary School"}}, {"type": "Feature", "geometry": {"type": "Point", "coordinates": [-1.539037, 53.82866]}, "properties": {"category": "supermarket", "name": "Co-op Food"}}, {"type": "Feature", "geometry": {"type": "Point", "coordinates": [-1.490034, 53.793958]}, "properties": {"category": "school", "name": "Meadowfield Primary School"}}, {"type": "Feature", "geometry": {"type": "Point", "coordinates": [-1.580984, 53.780673]}, "properties": {"category": "school", "name": "The Elland Academy"}}, {"type": "Feature", "geometry": {"type": "Point", "coordinates": [-1.531472, 53.81008]}, "properties": {"category": "college", "name": "Leeds City College: Thomas Danby"}}, {"type": "Feature", "geometry": {"type": "Point", "coordinates": [-1.526192, 53.802746]}, "properties": {"category": "supermarket", "name": "Freshways"}}, {"type": "Feature", "geometry": {"type": "Point", "coordinates": [-1.522034, 53.802567]}, "properties": {"category": "school", "name": "Co-op Academy Leeds"}}, {"type": "Feature", "geometry": {"type": "Point", "coordinates": [-1.566939, 53.803607]}, "properties": {"category": "school", "name": "Rosebank Primary School"}}, {"type": "Feature", "geometry": {"type": "Point", "coordinates": [-1.513754, 53.828809]}, "properties": {"category": "school", "name": "Kerr Mackie Primary School"}}, {"type": "Feature", "geometry": {"type": "Point", "coordinates": [-1.511722, 53.830318]}, "properties": {"category": "school", "name": "Roundhay School"}}, {"type": "Feature", "geometry": {"type": "Point", "coordinates": [-1.533432, 53.811708]}, "properties": {"category": "school", "name": "Holy Rosary and St Anne's Catholic Primary School"}}, {"type": "Feature", "geometry": {"type": "Point", "coordinates": [-1.519834, 53.796993]}, "properties": {"category": "school", "name": "All Saint's Richmond Hill Church of England Primary School"}}, {"type": "Feature", "geometry": {"type": "Point", "coordinates": [-1.490353, 53.806658]}, "properties": {"category": "school", "name": "Wykebeck Primary School"}}, {"type": "Feature", "geometry": {"type": "Point", "coordinates": [-1.488439, 53.811156]}, "properties": {"category": "school", "name": "St Nicholas Catholic Primary School"}}, {"type": "Feature", "geometry": {"type": "Point", "coordinates": [-1.618272, 53.805795]}, "properties": {"category": "school", "name": "Christ The King Catholic Primary School"}}, {"type": "Feature", "geometry": {"type": "Point", "coordinates": [-1.618241, 53.807746]}, "properties": {"category": "school", "name": "Raynville Academy"}}, {"type": "Feature", "geometry": {"type": "Point", "coordinates": [-1.617074, 53.814006]}, "properties": {"category": "school", "name": "Hollybush Primary School"}}, {"type": "Feature", "geometry": {"type": "Point", "coordinates": [-1.489259, 53.754436]}, "properties": {"category": "school", "name": "Rothwell Victoria Junior School"}}, {"type": "Feature", "geometry": {"type": "Point", "coordinates": [-1.553144, 53.782796]}, "properties": {"category": "school", "name": "Beeston Hill St Luke's Church of England Primary School"}}, {"type": "Feature", "geometry": {"type": "Point", "coordinates": [-1.545638, 53.780135]}, "properties": {"category": "school", "name": "New Bewerley Community School"}}, {"type": "Feature", "geometry": {"type": "Point", "coordinates": [-1.494211, 53.823164]}, "properties": {"category": "school", "name": "John Jamieson School"}}, {"type": "Feature", "geometry": {"type": "Point", "coordinates": [-1.495891, 53.82702]}, "properties": {"category": "school", "name": "Roundhay St John's Church of England Primary School"}}, {"type": "Feature", "geometry": {"type": "Point", "coordinates": [-1.575665, 53.791525]}, "properties": {"category": "pharmacy", "name": "Cohens Chemist"}}, {"type": "Feature", "geometry": {"type": "Point", "coordinates": [-1.501837, 53.800111]}, "properties": {"category": "school", "name": "Victoria Primary Academy"}}, {"type": "Feature", "geometry": {"type": "Point", "coordinates": [-1.522027, 53.799705]}, "properties": {"category": "school", "name": "Ebor Gardens Primary Academy"}}, {"type": "Feature", "geometry": {"type": "Point", "coordinates": [-1.552888, 53.777388]}, "properties": {"category": "school", "name": "Greenmount Primary School"}}, {"type": "Feature", "geometry": {"type": "Point", "coordinates": [-1.600163, 53.817922]}, "properties": {"category": "school", "name": "Kirkstall St Stephen's Church of England (VA) Primary School"}}, {"type": "Feature", "geometry": {"type": "Point", "coordinates": [-1.532159, 53.805691]}, "properties": {"category": "supermarket", "name": "Mydonose International Food Store"}}, {"type": "Feature", "geometry": {"type": "Point", "coordinates": [-1.527153, 53.820663]}, "properties": {"category": "school", "name": "Bracken Edge Primary School"}}, {"type": "Feature", "geometry": {"type": "Point", "coordinates": [-1.514159, 53.808619]}, "properties": {"category": "school", "name": "Co-op Academy Nightingale"}}, {"type": "Feature", "geometry": {"type": "Point", "coordinates": [-1.53018, 53.809133]}, "properties": {"category": "college", "name": "Leeds City College: Enfield Centre"}}, {"type": "Feature", "geometry": {"type": "Point", "coordinates": [-1.582891, 53.829489]}, "properties": {"category": "school", "name": "Weetwood Primary School"}}, {"type": "Feature", "geometry": {"type": "Point", "coordinates": [-1.527139, 53.807972]}, "properties": {"category": "supermarket", "name": "Tian Tian Oriental Food"}}, {"type": "Feature", "geometry": {"type": "Point", "coordinates": [-1.534558, 53.799019]}, "properties": {"category": "college", "name": "Leeds City College"}}, {"type": "Feature", "geometry": {"type": "Point", "coordinates": [-1.533894, 53.788158]}, "properties": {"category": "school", "name": "University Technical College Leeds"}}, {"type": "Feature", "geometry": {"type": "Point", "coordinates": [-1.562566, 53.771345]}, "properties": {"category": "school", "name": "St Anthony's Catholic Primary School"}}, {"type": "Feature", "geometry": {"type": "Point", "coordinates": [-1.592983, 53.822694]}, "properties": {"category": "school", "name": "Campus Queenswood Education Centre"}}, {"type": "Feature", "geometry": {"type": "Point", "coordinates": [-1.569056, 53.805868]}, "properties": {"category": "pharmacy", "name": "Andrew Tylee Pharmacy"}}, {"type": "Feature", "geometry": {"type": "Point", "coordinates": [-1.58964, 53.796972]}, "properties": {"category": "supermarket", "name": "Heron Foods"}}, {"type": "Feature", "geometry": {"type": "Point", "coordinates": [-1.575153, 53.791089]}, "properties": {"category": "pharmacy", "name": "Lloyds Pharmacy"}}, {"type": "Feature", "geometry": {"type": "Point", "coordinates": [-1.539699, 53.808645]}, "properties": {"category": "school", "name": "Little London Academy"}}, {"type": "Feature", "geometry": {"type": "Point", "coordinates": [-1.546835, 53.806788]}, "properties": {"category": "school", "name": "Blenheim Primary School"}}, {"type": "Feature", "geometry": {"type": "Point", "coordinates": [-1.543652, 53.776837]}, "properties": {"category": "supermarket", "name": "Aldi"}}, {"type": "Feature", "geometry": {"type": "Point", "coordinates": [-1.528376, 53.778858]}, "properties": {"category": "pharmacy", "name": "Well Pharmacy"}}, {"type": "Feature", "geometry": {"type": "Point", "coordinates": [-1.498527, 53.798383]}, "properties": {"category": "pharmacy", "name": "East Leeds Pharmacy"}}, {"type": "Feature", "geometry": {"type": "Point", "coordinates": [-1.593017, 53.758811]}, "properties": {"category": "pharmacy", "name": "Well Pharmacy"}}, {"type": "Feature", "geometry": {"type": "Point", "coordinates": [-1.573166, 53.772205]}, "properties": {"category": "school", "name": "Beeston Primary School"}}, {"type": "Feature", "geometry": {"type": "Point", "coordinates": [-1.573195, 53.766457]}, "properties": {"category": "school", "name": "The Stephen Longfellow Academy"}}, {"type": "Feature", "geometry": {"type": "Point", "coordinates": [-1.561252, 53.769737]}, "properties": {"category": "school", "name": "Eden Park Academy"}}, {"type": "Feature", "geometry": {"type": "Point", "coordinates": [-1.555087, 53.777909]}, "properties": {"category": "pharmacy", "name": "Boots"}}, {"type": "Feature", "geometry": {"type": "Point", "coordinates": [-1.564753, 53.771684]}, "properties": {"category": "pharmacy", "name": "Living Care Pharmacy"}}, {"type": "Feature", "geometry": {"type": "Point", "coordinates": [-1.550431, 53.783869]}, "properties": {"category": "school", "name": "Lane End Primary School"}}, {"type": "Feature", "geometry": {"type": "Point", "coordinates": [-1.546407, 53.773506]}, "properties": {"category": "pharmacy", "name": "Living Care"}}, {"type": "Feature", "geometry": {"type": "Point", "coordinates": [-1.545706, 53.774471]}, "properties": {"category": "pharmacy", "name": "Al Shafa"}}, {"type": "Feature", "geometry": {"type": "Point", "coordinates": [-1.539464, 53.82963]}, "properties": {"category": "supermarket", "name": "Aldi"}}, {"type": "Feature", "geometry": {"type": "Point", "coordinates": [-1.536755, 53.788569]}, "properties": {"category": "college", "name": "Leeds City College"}}, {"type": "Feature", "geometry": {"type": "Point", "coordinates": [-1.531372, 53.82389]}, "properties": {"category": "school", "name": "Al Kauthar Girls Academy"}}, {"type": "Feature", "geometry": {"type": "Point", "coordinates": [-1.532152, 53.82217]}, "properties": {"category": "pharmacy", "name": "Medichem Pharmacy"}}, {"type": "Feature", "geometry": {"type": "Point", "coordinates": [-1.526905, 53.805393]}, "properties": {"category": "school", "name": "Shakespeare Primary School"}}, {"type": "Feature", "geometry": {"type": "Point", "coordinates": [-1.535422, 53.802971]}, "properties": {"category": "college", "name": "Leeds College of Building"}}, {"type": "Feature", "geometry": {"type": "Point", "coordinates": [-1.509743, 53.809158]}, "properties": {"category": "supermarket", "name": "Heron Foods"}}, {"type": "Feature", "geometry": {"type": "Point", "coordinates": [-1.54478, 53.775186]}, "properties": {"category": "supermarket", "name": "Kashmir Supermarket"}}, {"type": "Feature", "geometry": {"type": "Point", "coordinates": [-1.513899, 53.813571]}, "properties": {"category": "pharmacy", "name": "Shaan Pharmacy"}}, {"type": "Feature", "geometry": {"type": "Point", "coordinates": [-1.554935, 53.77788]}, "properties": {"category": "pharmacy", "name": "Beeston Hill Pharmacy"}}, {"type": "Feature", "geometry": {"type": "Point", "coordinates": [-1.513965, 53.816538]}, "properties": {"category": "supermarket", "name": "Abaseen Superstore"}}, {"type": "Feature", "geometry": {"type": "Point", "coordinates": [-1.515346, 53.801203]}, "properties": {"category": "school", "name": "Trinity Academy Leeds"}}, {"type": "Feature", "geometry": {"type": "Point", "coordinates": [-1.505701, 53.806721]}, "properties": {"category": "supermarket", "name": "Asda"}}, {"type": "Feature", "geometry": {"type": "Point", "coordinates": [-1.524546, 53.802477]}, "properties": {"category": "supermarket", "name": "Heron Foods"}}, {"type": "Feature", "geometry": {"type": "Point", "coordinates": [-1.577963, 53.797579]}, "properties": {"category": "supermarket", "name": "Lidl"}}, {"type": "Feature", "geometry": {"type": "Point", "coordinates": [-1.531723, 53.804068]}, "properties": {"category": "supermarket", "name": "Aldi"}}, {"type": "Feature", "geometry": {"type": "Point", "coordinates": [-1.528118, 53.811224]}, "properties": {"category": "school", "name": "Dixons Trinity Chapeltown"}}, {"type": "Feature", "geometry": {"type": "Point", "coordinates": [-1.548289, 53.803669]}, "properties": {"category": "university", "name": "Leeds Beckett University, City Campus"}}, {"type": "Feature", "geometry": {"type": "Point", "coordinates": [-1.554221, 53.80062]}, "properties": {"category": "hospital", "name": "Nuffield Hospital"}}, {"type": "Feature", "geometry": {"type": "Point", "coordinates": [-1.599188, 53.783049]}, "properties": {"category": "school", "name": "Lower Wortley Primary School"}}, {"type": "Feature", "geometry": {"type": "Point", "coordinates": [-1.547132, 53.813234]}, "properties": {"category": "school", "name": "West Oaks SEN Specialist School and College"}}, {"type": "Feature", "geometry": {"type": "Point", "coordinates": [-1.605299, 53.817033]}, "properties": {"category": "supermarket", "name": "The Food Warehouse"}}, {"type": "Feature", "geometry": {"type": "Point", "coordinates": [-1.602321, 53.814246]}, "properties": {"category": "pharmacy", "name": "Boots"}}, {"type": "Feature", "geometry": {"type": "Point", "coordinates": [-1.602051, 53.813078]}, "properties": {"category": "supermarket", "name": "Morrisons"}}, {"type": "Feature", "geometry": {"type": "Point", "coordinates": [-1.601888, 53.793825]}, "properties": {"category": "supermarket", "name": "Aldi"}}, {"type": "Feature", "geometry": {"type": "Point", "coordinates": [-1.539966, 53.807785]}, "properties": {"category": "pharmacy", "name": "Lloyds Pharmacy"}}, {"type": "Feature", "geometry": {"type": "Point", "coordinates": [-1.608247, 53.801938]}, "properties": {"category": "school", "name": "Armley Grange School"}}, {"type": "Feature", "geometry": {"type": "Point", "coordinates": [-1.576554, 53.761467]}, "properties": {"category": "college", "name": "Elliott Hudson College"}}, {"type": "Feature", "geometry": {"type": "Point", "coordinates": [-1.552788, 53.81053]}, "properties": {"category": "school", "name": "Notre Dame Catholic 6th Form College"}}, {"type": "Feature", "geometry": {"type": "Point", "coordinates": [-1.530592, 53.801989]}, "properties": {"category": "university", "name": "Mabgate University Centre"}}, {"type": "Feature", "geometry": {"type": "Point", "coordinates": [-1.58115, 53.808129]}, "properties": {"category": "school", "name": "Burley St Matthias Church of England Voluntary Controlled Primary School"}}, {"type": "Feature", "geometry": {"type": "Point", "coordinates": [-1.573951, 53.815746]}, "properties": {"category": "university", "name": "Leeds Beckett University"}}, {"type": "Feature", "geometry": {"type": "Point", "coordinates": [-1.337466, 52.510898]}, "properties": {"category": "university", "name": "University of Law"}}]}